"Company Name","Address","ZIP Code","Legal Name","Record Type","Neighborhood","Census Block Group","Company Description","Primary SIC Code","Primary SIC Description","Primary NAICS","Primary NAICS Description","Location Employee Size Range","Location Type","Years In Database","Square Footage","Latitude","Longitude"
"100 Black Men Of Philadelphia","2300 W Master St # 1","19121","","Unverified","Sharswood","2","","999977","Nonclassified Establishments","99999004","Unclassified Establishments","","Single Loc","2","","039.976239","-075.174217"
"1220 Lindley Avenue Assoc LLC","2101 N College Ave","19121","1220 LINDLEY AVENUE ASSOC LLC","Unverified","Sharswood","2","","999977","Nonclassified Establishments","99999004","Unclassified Establishments","","Single Loc","4","","039.975227","-075.171211"
"1496 Bushwick LLC","2101 N College Ave","19121","1496 BUSHWICK LLC","Unverified","Sharswood","2","","999977","Nonclassified Establishments","99999004","Unclassified Establishments","","Single Loc","4","","039.975227","-075.171211"
"1518 Loudon LLC","2026 Ridge Ave","19121","1518 LOUDON LLC","Unverified","Sharswood","2","","653118","Real Estate","53121003","Offices Of Real Estate Agents And Brokers","1 to 4","Single Loc","12","2,500 - 4,999","039.976045","-075.169080"
"1530 Ridge LLC","2026 Ridge Ave # 2","19121","1530 RIDGE LLC","Unverified","Sharswood","2","","999977","Nonclassified Establishments","99999004","Unclassified Establishments","","Single Loc","4","","039.976045","-075.169080"
"16th Associates LLC","2101 N College Ave","19121","16TH ASSOCIATES LLC","Unverified","Sharswood","2","","999977","Nonclassified Establishments","99999004","Unclassified Establishments","","Single Loc","4","","039.975227","-075.171211"
"1985 LLC","2026 Ridge Ave # 4","19121","1985 LLC","Unverified","Sharswood","2","","999977","Nonclassified Establishments","99999004","Unclassified Establishments","","Single Loc","4","","039.976045","-075.169080"
"2048 St Inc","2048 Ridge Ave","19121","2048 ST INC","Unverified","Sharswood","2","","653118","Real Estate","53121003","Offices Of Real Estate Agents And Brokers","5 to 9","Single Loc","4","","039.976574","-075.169336"
"2111 Seybert LLC","2111 W Seybert St","19121","2111 SEYBERT LLC","Unverified","Sharswood","2","","999977","Nonclassified Establishments","99999004","Unclassified Establishments","","Single Loc","4","","039.975645","-075.170902"
"2245 W Thompson Street Condo","2245 W Thompson St","19121","2245 W THOMPSON STREET CONDOMINIUM ASSN","Unverified","Sharswood","2","","999977","Nonclassified Establishments","99999004","Unclassified Establishments","","Single Loc","2","","039.975214","-075.173443"
"2323 Jefferson St","2323 W Jefferson St","19121","","Unverified","Sharswood","1","","999977","Nonclassified Establishments","99999004","Unclassified Establishments","","Single Loc","3","","039.978147","-075.173577"
"2434 W Thompson Street","2434 W Thompson St","19121","2434 W THOMPSON STREET HOMEOWNERS' ASSN","Unverified","Sharswood","2","","999977","Nonclassified Establishments","99999004","Unclassified Establishments","","Single Loc","2","","039.975341","-075.176656"
"2448 Master Inc","2448 W Master St","19121","2448 MASTER INC","Unverified","Sharswood","2","","999977","Nonclassified Establishments","99999004","Unclassified Establishments","","Single Loc","4","","039.976679","-075.176478"
"25 Bar Inc","2448 W Master St","19121","25 BAR INC","Unverified","Sharswood","2","","999977","Nonclassified Establishments","99999004","Unclassified Establishments","","Single Loc","4","","039.976679","-075.176478"
"257 Sharpnack LLC","2026 Ridge Ave","19121","257 SHARPNACK LLC","Unverified","Sharswood","2","","653108","Real Estate Management","53121005","Offices Of Real Estate Agents And Brokers","1 to 4","Single Loc","12","1,500 - 2,499","039.976045","-075.169080"
"2645 Jefferson LLC","2026 Ridge Ave","19121","2645 JEFFERSON LLC","Unverified","Sharswood","2","","999977","Nonclassified Establishments","99999004","Unclassified Establishments","","Single Loc","4","","039.976045","-075.169080"
"3632 Sydenham LLC","2026 Ridge Ave","19121","3632 SYDENHAM LLC","Unverified","Sharswood","2","","999977","Nonclassified Establishments","99999004","Unclassified Establishments","","Single Loc","4","","039.976045","-075.169080"
"3838 Brown LLC","2026 Ridge Ave","19121","3838 BROWN LLC","Unverified","Sharswood","2","","999977","Nonclassified Establishments","99999004","Unclassified Establishments","","Single Loc","4","","039.976045","-075.169080"
"4501 Frankford Ave Assoc LLC","2101 N College Ave # H2","19121","4501 FRANKFORD AVE ASSOC LLC","Unverified","Sharswood","2","","999977","Nonclassified Establishments","99999004","Unclassified Establishments","","Single Loc","4","","039.975227","-075.171211"
"4545 Uber LLC","2026 Ridge Ave","19121","4545 UBER LLC","Unverified","Sharswood","2","","653118","Real Estate","53121003","Offices Of Real Estate Agents And Brokers","1 to 4","Single Loc","12","2,500 - 4,999","039.976045","-075.169080"
"4th Quarter Construction Inc","2438 W Seybert St","19121","4TH QUARTER CONSTRUCTION INC","Unverified","Sharswood","2","","152144","Construction Companies","23611512","New Single-Family Housing Construction (Except For","1 to 4","Single Loc","4","","039.975869","-075.176259"
"5041 Wade LLC","2026 Ridge Ave","19121","5041 WADE LLC","Unverified","Sharswood","2","","653108","Real Estate Management","53121005","Offices Of Real Estate Agents And Brokers","1 to 4","Single Loc","12","1,500 - 2,499","039.976045","-075.169080"
"5101 North Twelfth Street Assc","2101 N College Ave","19121","","Unverified","Sharswood","2","","999977","Nonclassified Establishments","99999004","Unclassified Establishments","","Single Loc","4","","039.975227","-075.171211"
"6039 Norwood LLC","2026 Ridge Ave","19121","6039 NORWOOD LLC","Unverified","Sharswood","2","","999977","Nonclassified Establishments","99999004","Unclassified Establishments","","Single Loc","4","","039.976045","-075.169080"
"6055 Haverford LLC","2026 Ridge Ave","19121","6055 HAVERFORD LLC","Unverified","Sharswood","2","","999977","Nonclassified Establishments","99999004","Unclassified Establishments","","Single Loc","4","","039.976045","-075.169080"
"7015 Roosevelt LLC","2048 Ridge Ave","19121","7015 ROOSEVELT LLC","Unverified","Sharswood","2","","999977","Nonclassified Establishments","99999004","Unclassified Establishments","","Single Loc","11","1 - 1,499","039.976574","-075.169336"
"806 Moyer St LLC","2207 W Thompson St # 1","19121","806 MOYER ST LLC","Unverified","Sharswood","2","","999977","Nonclassified Establishments","99999004","Unclassified Establishments","","Single Loc","1","","039.975080","-075.172381"
"A & G Capital Group LLC","2215 W Thompson St","19121","A & G CAPITAL GROUP LLC","Unverified","Sharswood","2","","999977","Nonclassified Establishments","99999004","Unclassified Establishments","","Single Loc","4","","039.975106","-075.172601"
"A Morgan & Son Inc","2050 Ridge Ave","19121","A MORGAN & SON INC","Unverified","Sharswood","2","","999977","Nonclassified Establishments","99999004","Unclassified Establishments","","Single Loc","4","","039.976741","-075.169369"
"AACC","2442 W Seybert St","19121","","Unverified","Sharswood","2","","999977","Nonclassified Establishments","99999004","Unclassified Establishments","","Single Loc","2","","039.975880","-075.176359"
"Aasimah's Blessed Hands LLC","2344 Sharswood St","19121","AASIMAH'S BLESSED HANDS LLC","Unverified","Sharswood","1","","999977","Nonclassified Establishments","99999004","Unclassified Establishments","","Single Loc","3","","039.977120","-075.174658"
"Adam Analysis & Logic LLC","2111 W Master St","19121","ATOM ANALYSIS & LOGIC LLC","Unverified","Sharswood","2","","865101","Political Organizations","81394003","Political Organizations","1 to 4","Single Loc","16","1,500 - 2,499","039.976165","-075.170686"
"Aesthetic Concepts Inc","2123 W Master St","19121","AESTHETIC CONCEPTS INC","Unverified","Sharswood","2","","999977","Nonclassified Establishments","99999004","Unclassified Establishments","","Single Loc","2","","039.976224","-075.171097"
"Agricultural Hut LLC","2130 W Master St","19121","AGRICULTURAL HUT LLC","Unverified","Sharswood","2","","013901","Agricultural Products","11199801","All Other Miscellaneous Crop Farming","5 to 9","Single Loc","4","","039.975943","-075.171221"
"Ah Cornerstone Invstmnt Group","2331 N College Ave","19121","","Unverified","Sharswood","2","","621111","Investments","52391001","Miscellaneous Intermediation","1 to 4","Single Loc","4","","039.974755","-075.174696"
"Ahold Delhaize","1316 N 23rd St","19121","","Unverified","Sharswood","2","","999977","Nonclassified Establishments","99999004","Unclassified Establishments","","Single Loc","2","","039.975520","-075.173818"
"All Team Staffing","2203 W Jefferson St","19121","","Unverified","Sharswood","1","","736103","Employment Agencies & Opportunities","56131102","Employment Placement Agencies","10 to 19","Single Loc","2","","039.977612","-075.171596"
"Ambassadors For Christ Prayer","2425 W Master St","19121","","Unverified","Sharswood","1","","866107","Churches","81311008","Religious Organizations","1 to 4","Single Loc","4","","039.976835","-075.175957"
"American Academy-Family Phys","2019 W Jefferson St","19121","","Unverified","Sharswood","2","","801101","Physicians & Surgeons","62111107","Offices Of Physicians (Except Mental Health Specia","1 to 4","Single Loc","6","1,500 - 2,499","039.977361","-075.168870"
"Ameritech","2412 W Master St","19121","","Unverified","Sharswood","2","","999977","Nonclassified Establishments","99999004","Unclassified Establishments","","Single Loc","5","","039.976620","-075.175800"
"Armstrong & Manes Inc","2317 W Thompson St","19121","ARMSTRONG & MANES INC","Unverified","Sharswood","2","","873204","Market Research & Analysis","54191001","Marketing Research And Public Opinion Polling","5 to 9","Single Loc","14","2,500 - 4,999","039.975327","-075.174233"
"Art Sanctuary","2101 S College Ave","19121","","Unverified","Sharswood","3","","599969","Art Galleries & Dealers","45992002","Art Dealers","1 to 4","Single Loc","11","1,500 - 2,499","039.972736","-075.173275"
"Audio Diagnostics Labs Inc","2323 W Thompson St","19121","AUDIO DIAGNOSTICS LABS INC","Unverified","Sharswood","2","","873104","Laboratories","54171414","Research And Development In Biotechnology (Except","1 to 4","Single Loc","4","","039.975344","-075.174403"
"Auto Gallery Inc","1412b N 22nd St","19121","AUTO GALLERY INC","Unverified","Sharswood","1","","551102","Automobile Dealers-New Cars","44111001","New Car Dealers","20 to 49","Single Loc","2","","039.976594","-075.171926"
"Automatic Winners LLC","2438 W Seybert St","19121","AUTOMATIC WINNERS LLC","Unverified","Sharswood","2","","999977","Nonclassified Establishments","99999004","Unclassified Establishments","","Single Loc","4","","039.975869","-075.176259"
"Baby Steps LLC","2205 W Thompson St","19121","BABY STEPS LLC","Unverified","Sharswood","2","","874899","Consultants-Business NEC","54161830","Other Management Consulting Services","1 to 4","Single Loc","11","1,500 - 2,499","039.975074","-075.172324"
"Baltimore Technologies","2101 N College Ave","19121","","Unverified","Sharswood","2","","999977","Nonclassified Establishments","99999004","Unclassified Establishments","","Single Loc","2","","039.975227","-075.171211"
"Barkmore Estates LLC","2220 W Master St # 10","19121","BARKMORE ESTATES LLC","Unverified","Sharswood","2","","999977","Nonclassified Establishments","99999004","Unclassified Establishments","","Single Loc","1","","039.976134","-075.172630"
"Baxter's Barber Shop","2040 Ridge Ave","19121","","Unverified","Sharswood","2","","724101","Barbers","81211101","Barber Shops","1 to 4","Single Loc","41","1 - 1,499","039.976417","-075.169163"
"Bennu Group","2017 W Master St","19121","","Unverified","Sharswood","2","","999977","Nonclassified Establishments","99999004","Unclassified Establishments","5 to 9","Single Loc","20","1,500 - 2,499","039.975870","-075.169052"
"Bennu Realty Group LLC","2017 W Master St","19121","BENNU REALTY GROUP LLC","Unverified","Sharswood","2","","653118","Real Estate","53121003","Offices Of Real Estate Agents And Brokers","1 to 4","Single Loc","15","2,500 - 4,999","039.975870","-075.169052"
"Berks Development & Constr Inc","2222 W Oxford St","19121","BERKS DEVELOPMENT & CONSTRUCTION INC","Unverified","Sharswood","1","","999977","Nonclassified Establishments","99999004","Unclassified Establishments","","Single Loc","4","","039.978985","-075.171869"
"Berte Home Improvement LLC","2433 W Jefferson St","19121","BERTE HOME IMPROVEMENT LLC","Unverified","Sharswood","1","","999977","Nonclassified Establishments","99999004","Unclassified Establishments","","Single Loc","3","","039.978196","-075.175708"
"Best Choice Rentals Inc","2026 Ridge Ave","19121","BEST CHOICE RENTALS INC","Unverified","Sharswood","2","","999977","Nonclassified Establishments","99999004","Unclassified Establishments","","Single Loc","11","1 - 1,499","039.976045","-075.169080"
"Big Brthers Big Ssters Indpndn","2101 S College Ave","19121","","Unverified","Sharswood","3","","999977","Nonclassified Establishments","99999004","Unclassified Establishments","","Single Loc","2","","039.972736","-075.173275"
"Big Dawg Auto Salez LLC","2442 Harlan St","19121","BIG DAWG AUTO SALEZ LLC","Unverified","Sharswood","1","","999977","Nonclassified Establishments","99999004","Unclassified Establishments","","Single Loc","4","","039.976993","-075.176117"
"Big Reds Wrap","1326 N 22nd St","19121","","Unverified","Sharswood","2","","999977","Nonclassified Establishments","99999004","Unclassified Establishments","","Single Loc","4","","039.975966","-075.172079"
"Black Ink Creative LLC","2216 W Seybert St","19121","BLACK INK CREATIVE DELINQUENT DECEMBER 1 2017","Unverified","Sharswood","2","","999977","Nonclassified Establishments","99999004","Unclassified Establishments","","Single Loc","9","1 - 1,499","039.975357","-075.172601"
"Black Roses LLC","2341 W Jefferson St","19121","BLACK ROSES LLC","Unverified","Sharswood","1","","999977","Nonclassified Establishments","99999004","Unclassified Establishments","","Single Loc","3","","039.977823","-075.173237"
"Blumberg Service Corp","2311 W Jefferson St","19121","BLUMBERG SERVICE CORP","Unverified","Sharswood","1","","899999","Services NEC","54199009","All Other Professional, Scientific, And Technical","1 to 4","Single Loc","4","","039.977794","-075.172997"
"Bob Buy & Sell Svc LLC","2419 W Master St","19121","BOB BUY & SELL SVC LLC","Unverified","Sharswood","1","","899999","Services NEC","54199009","All Other Professional, Scientific, And Technical","1 to 4","Single Loc","4","","039.976794","-075.175734"
"Bomb Hair LLC","2129 W Jefferson St","19121","BOMB HAIR LTD LIABILITY CO","Unverified","Sharswood","2","","723106","Beauty Salons","81211202","Beauty Salons","1 to 4","Single Loc","3","","039.977591","-075.170846"
"Bosman & Sons Inc","1265 N 23rd St","19121","BOSMAN & SONSINC","Unverified","Sharswood","2","","999977","Nonclassified Establishments","99999004","Unclassified Establishments","","Single Loc","1","","039.974999","-075.173548"
"Braid Co Inc","2200 W Jefferson St","19121","BRAID CO INC","Unverified","Sharswood","1","","723106","Beauty Salons","81211202","Beauty Salons","1 to 4","Single Loc","4","","039.977418","-075.171691"
"Bricky World LLC","2442 W Seybert St","19121","BRICKY WORLD LLC","Unverified","Sharswood","2","","999977","Nonclassified Establishments","99999004","Unclassified Establishments","","Single Loc","4","","039.975880","-075.176359"
"Briscoe's 2100 W Jefferson","2100 W Jefferson St","19121","","Unverified","Sharswood","2","","999977","Nonclassified Establishments","99999004","Unclassified Establishments","","Single Loc","4","","039.977088","-075.170788"
"Brooke's Bridge's LLC","1502 N 22nd St","19121","BROOKE'S BRIDGE'S LLC","Unverified","Sharswood","1","","999977","Nonclassified Establishments","99999004","Unclassified Establishments","","Single Loc","3","","039.977671","-075.171562"
"Brown's Variety","2100 W Master St","19121","BROWN'S VARIETY","Unverified","Sharswood","2","","999977","Nonclassified Establishments","99999004","Unclassified Establishments","","Single Loc","3","","039.975813","-075.170372"
"Buzzy B Delights LLC","2435 W Thompson St","19121","BUZZY B DELIGHTS LLC","Unverified","Sharswood","2","","999977","Nonclassified Establishments","99999004","Unclassified Establishments","","Single Loc","4","","039.975584","-075.176465"
"Callum No 7 LLC","1223 N 25th St # 3","19121","CALLUM NO 7 LLC","Unverified","Sharswood","2","","999977","Nonclassified Establishments","99999004","Unclassified Establishments","","Single Loc","4","","039.975141","-075.176769"
"Candy's Decorganizing Svc LLC","2300 W Master St","19121","CANDY'S DECORGANIZING SVC LLC","Unverified","Sharswood","2","","999977","Nonclassified Establishments","99999004","Unclassified Establishments","","Single Loc","3","","039.976239","-075.174217"
"Carephilly Constructed LLC","1402d N 22nd St","19121","CAREPHILLY CONSTRUCTED LLC","Unverified","Sharswood","1","","999977","Nonclassified Establishments","99999004","Unclassified Establishments","","Single Loc","3","","039.976284","-075.171868"
"Caribbean Bites Co","2248 Stewart St # D","19121","","Unverified","Sharswood","1","","999977","Nonclassified Establishments","99999004","Unclassified Establishments","","Single Loc","4","","039.977250","-075.172680"
"Carolyn F Wesley Ent Inc","2440 W Seybert St","19121","CAROLYN F WESLEY ENT INC","Unverified","Sharswood","2","","999977","Nonclassified Establishments","99999004","Unclassified Establishments","","Single Loc","1","","039.975875","-075.176308"
"Cdfi Coalition","2444 W Seybert St","19121","","Unverified","Sharswood","2","","999977","Nonclassified Establishments","99999004","Unclassified Establishments","","Single Loc","2","","039.975886","-075.176409"
"Central Refrigeration Co","2016 Ridge Ave","19121","","Unverified","Sharswood","2","","762302","Refrigerators & Freezers-Service/Repair","81141216","Appliance Repair And Maintenance","1 to 4","Single Loc","4","","039.975883","-075.168861"
"Century 21 Tradin Places","2232d Stewart St","19121","","Unverified","Sharswood","1","","653118","Real Estate","53121003","Offices Of Real Estate Agents And Brokers","1 to 4","Single Loc","2","","039.977230","-075.172535"
"Chef's Secret Enterprises LLC","1202 N 24th St # 2","19121","CHEF'S SECRET ENTERPRISES LLC","Unverified","Sharswood","2","","999977","Nonclassified Establishments","99999004","Unclassified Establishments","","Single Loc","2","","039.974816","-075.175620"
"Chico White","2344 W Thompson St","19121","","Unverified","Sharswood","2","","999977","Nonclassified Establishments","99999004","Unclassified Establishments","","Single Loc","4","","039.975111","-075.174987"
"Childrens Aid Society-Penna","2027 N College Ave","19121","","Unverified","Sharswood","2","","999977","Nonclassified Establishments","99999004","Unclassified Establishments","","Single Loc","2","","039.975286","-075.169409"
"Childrens Learning Arc","2058 Ridge Ave","19121","CHILDRENS LEARNING ARC","Unverified","Sharswood","2","","835101","Child Care Service","62441003","Child Care Services","1 to 4","Single Loc","8","1,500 - 2,499","039.976910","-075.169451"
"Childrens Positive Palace","2058 Ridge Ave # 1","19121","","Unverified","Sharswood","2","","835101","Child Care Service","62441003","Child Care Services","1 to 4","Single Loc","13","1,500 - 2,499","039.976910","-075.169451"
"China Sea","2454 Harlan St","19121","","Unverified","Sharswood","1","","581208","Restaurants","72251117","Full-Service Restaurants","1 to 4","Single Loc","20","1 - 1,499","039.977029","-075.176420"
"China, Sea","2454 Harlan St","19121","","Unverified","Sharswood","1","","581208","Restaurants","72251117","Full-Service Restaurants","1 to 4","Single Loc","15","1 - 1,499","039.977029","-075.176420"
"Christ Mission Ctr","2026 Ridge Ave # 2","19121","CHRIST MISSION INC","Unverified","Sharswood","2","","866107","Churches","81311008","Religious Organizations","1 to 4","Single Loc","15","1,500 - 2,499","039.976045","-075.169080"
"Christian Mission Baptist Chr","2131 W Seybert St","19121","CHRISTIAN MISSION BAPTIST CHURCH","Unverified","Sharswood","2","","866107","Churches","81311008","Religious Organizations","1 to 4","Single Loc","27","1,500 - 2,499","039.975564","-075.171470"
"Citilife Inc","2118 W Master St","19121","CITILIFE INC","Unverified","Sharswood","2","","999977","Nonclassified Establishments","99999004","Unclassified Establishments","","Single Loc","4","","039.975903","-075.170878"
"City Of Greenville","1202 N Taylor St","19121","","Unverified","Sharswood","2","","912104","Government Offices-City/Village & Twp","92112006","Legislative Bodies","20 to 49","Single Loc","2","","039.974722","-075.176596"
"City Wide Refrigeration","2210 W Oxford St","19121","","Unverified","Sharswood","1","","762302","Refrigerators & Freezers-Service/Repair","81141216","Appliance Repair And Maintenance","1 to 4","Single Loc","4","","039.978948","-075.171552"
"Classic Varsity LTD","2101 S College Ave # 175","19121","","Unverified","Sharswood","3","","999977","Nonclassified Establishments","99999004","Unclassified Establishments","","Single Loc","4","","039.972736","-075.173275"
"Clean Image Cleaning Co","2328 W Thompson St","19121","","Unverified","Sharswood","2","","734902","Janitor Service","56172001","Janitorial Services","1 to 4","Single Loc","4","","039.975067","-075.174561"
"Clean To Perfection","2410 W Thompson St","19121","","Unverified","Sharswood","2","","999977","Nonclassified Establishments","99999004","Unclassified Establishments","","Single Loc","4","","039.975227","-075.175736"
"Clemente Beer","2048 Ridge Ave","19121","","Unverified","Sharswood","2","","518101","Beer & Ale-Wholesale","42481001","Beer And Ale Merchant Wholesalers","1 to 4","Single Loc","13","2,500 - 4,999","039.976574","-075.169336"
"CMCS Inc","2225 N College Ave","19121","CMCS INC","Unverified","Sharswood","2","","999977","Nonclassified Establishments","99999004","Unclassified Establishments","","Single Loc","2","","039.974888","-075.173047"
"Cocanut Grove","2104 Ridge Ave","19121","","Unverified","Sharswood","2","","999977","Nonclassified Establishments","99999004","Unclassified Establishments","","Single Loc","4","","039.977975","-075.170092"
"Coko's Hair Hut","2004 Ridge Ave","19121","","Unverified","Sharswood","2","","723106","Beauty Salons","81211202","Beauty Salons","1 to 4","Single Loc","9","1 - 1,499","039.975410","-075.168605"
"Committee To Investigate","1410 N 21st St","19121","","Unverified","Sharswood","2","","999977","Nonclassified Establishments","99999004","Unclassified Establishments","","Single Loc","4","","039.976331","-075.170330"
"Community Coordinating Svc","2006 Ridge Ave # 2","19121","","Unverified","Sharswood","2","","899999","Services NEC","54199009","All Other Professional, Scientific, And Technical","1 to 4","Single Loc","4","","039.975453","-075.168634"
"Compass Group USA Inc","2101 N College Ave","19121","COMPASS GROUP USA INC","Unverified","Sharswood","2","","514939","Food Service-Distributors (Whls)","42512058","Wholesale Trade Agents And Brokers","10 to 19","Branch","15","20,000 - 39,999","039.975227","-075.171211"
"Compassionate Caretakers","2100 Ridge Ave","19121","COMPASSIONATE CARETAKERS DEVELOPMENTAL LEARNING CTR LLC","Unverified","Sharswood","2","","738999","Business Services NEC","56199001","All Other Support Services","1 to 4","Single Loc","7","1,500 - 2,499","039.977905","-075.170048"
"Compassionate Caretakers","2439 N College Ave # 5","19121","COMPASSIONATE CARETAKERS HOMECARE AGENCY","Unverified","Sharswood","2","","808201","Home Health Service","62161001","Home Health Care Services","5 to 9","Single Loc","4","","039.974511","-075.176950"
"Consultor Imobilirio","2101 N College Ave","19121","","Unverified","Sharswood","2","","999977","Nonclassified Establishments","99999004","Unclassified Establishments","","Single Loc","3","","039.975227","-075.171211"
"Cosmetic-PORT LLC","2224 W Oxford St","19121","COSMETIC-PORT LLC","Unverified","Sharswood","1","","999977","Nonclassified Establishments","99999004","Unclassified Establishments","","Single Loc","4","","039.978991","-075.171922"
"Crawl-EZ Socks","2101 S College Ave","19121","","Unverified","Sharswood","3","","999977","Nonclassified Establishments","99999004","Unclassified Establishments","","Single Loc","11","1 - 1,499","039.972736","-075.173275"
"Crefeld School","2101 S College Ave","19121","","Unverified","Sharswood","3","","821103","Schools","61111007","Elementary And Secondary Schools","100 to 249","Single Loc","3","","039.972736","-075.173275"
"Crooklyn Property LLC","2430 W Jefferson St","19121","CROOKLYN PROPERTY LLC","Unverified","Sharswood","1","","653118","Real Estate","53121003","Offices Of Real Estate Agents And Brokers","1 to 4","Single Loc","4","","039.977942","-075.175673"
"Cruze Limousine Svc Inc","2027 W Master St # 2","19121","CRUZE LIMOUSINE SVC INC","Unverified","Sharswood","2","","411903","Limousine Service","48532002","Limousine Service","1 to 4","Single Loc","4","","039.976008","-075.169365"
"Dan's Trucking Co","2422 W Master St","19121","DAN'S TRUCKING CO","Unverified","Sharswood","2","","421304","Trucking","48423013","Specialized Freight (Except Used Goods) Trucking,","1 to 4","Single Loc","3","","039.976554","-075.175781"
"Dashing Rogue","2205 W Thompson St","19121","","Unverified","Sharswood","2","","999977","Nonclassified Establishments","99999004","Unclassified Establishments","","Single Loc","1","","039.975074","-075.172324"
"David Fitzgerald","2114 Ridge Ave","19121","","Unverified","Sharswood","2","","999977","Nonclassified Establishments","99999004","Unclassified Establishments","","Single Loc","2","","039.978330","-075.170248"
"Dbod LLC","1513 N 23rd St","19121","DBOD LLC","Unverified","Sharswood","1","","999977","Nonclassified Establishments","99999004","Unclassified Establishments","","Single Loc","4","","039.979236","-075.172697"
"Dieu LA Fait LLC","1326 N 22nd St","19121","DIEU LA FAIT LLC","Unverified","Sharswood","2","","504403","Copying & Duplicating Machines & Supls","42342015","Office Equipment Merchant Wholesalers","20 to 49","Single Loc","4","","039.975966","-075.172079"
"Diudin Inc","2440 W Jefferson St # 2","19121","DIUDIN INC","Unverified","Sharswood","1","","999977","Nonclassified Establishments","99999004","Unclassified Establishments","","Single Loc","4","","039.977968","-075.175938"
"DJ Delivery LLC","1414d N 23rd St","19121","DJ DELIVERY LLC","Unverified","Sharswood","1","","999977","Nonclassified Establishments","99999004","Unclassified Establishments","","Single Loc","3","","039.976833","-075.173395"
"DMC Power Inc","2101 S College Ave","19121","DMC POWER INC","Unverified","Sharswood","3","","999977","Nonclassified Establishments","99999004","Unclassified Establishments","","Single Loc","3","","039.972736","-075.173275"
"Dr Mary Washam","2222 W Master St","19121","","Unverified","Sharswood","2","","999977","Nonclassified Establishments","99999004","Unclassified Establishments","","Single Loc","11","1 - 1,499","039.976127","-075.172577"
"Dream Home Builders Constr LLC","2113 Sharswood St","19121","DREAM HOME BUILDERS CONSTR LLC","Unverified","Sharswood","2","","152144","Construction Companies","23611512","New Single-Family Housing Construction (Except For","1 to 4","Single Loc","4","","039.976902","-075.170652"
"Drexel University","2428 W Thompson St","19121","","Unverified","Sharswood","2","","999977","Nonclassified Establishments","99999004","Unclassified Establishments","","Single Loc","1","","039.975299","-075.176573"
"Durable Vulcanizing Co","2017 W Master St","19121","","Unverified","Sharswood","2","","999977","Nonclassified Establishments","99999004","Unclassified Establishments","","Single Loc","4","","039.975870","-075.169052"
"East Bethel Baptist Church","1521 N 24th St","19121","","Unverified","Sharswood","1","","866107","Churches","81311008","Religious Organizations","1 to 4","Single Loc","4","","039.978856","-075.174437"
"Easy Does It","2017 N College Ave","19121","EAZY DOES IT INC","Unverified","Sharswood","2","","999977","Nonclassified Establishments","99999004","Unclassified Establishments","","Single Loc","15","1 - 1,499","039.975357","-075.169019"
"El Centro De Estudiantes","2300 W Master St # 1","19121","","Unverified","Sharswood","2","","999977","Nonclassified Establishments","99999004","Unclassified Establishments","","Single Loc","2","","039.976239","-075.174217"
"Elite & Pro Barbers LLC","2423 W Master St","19121","ELITE & PRO BARBERS LLC","Unverified","Sharswood","1","","724101","Barbers","81211101","Barber Shops","1 to 4","Single Loc","4","","039.976817","-075.175876"
"Elite Cleaning Team LLC","2423 W Master St","19121","ELITE CLEANING TEAM LLC","Unverified","Sharswood","1","","734902","Janitor Service","56172001","Janitorial Services","1 to 4","Single Loc","4","","039.976817","-075.175876"
"Elt Schuylkill Fls Bldg Supl","1535 N 22nd St","19121","","Unverified","Sharswood","2","","521126","Building Materials","44411001","Home Centers","10 to 19","Single Loc","1","","039.978526","-075.171118"
"Embry Care Svc","1503 N 24th St","19121","","Unverified","Sharswood","1","","999977","Nonclassified Establishments","99999004","Unclassified Establishments","","Single Loc","2","","039.978409","-075.174535"
"Erizon","2101 N College Ave # H1","19121","","Unverified","Sharswood","2","","999977","Nonclassified Establishments","99999004","Unclassified Establishments","","Single Loc","2","","039.975227","-075.171211"
"Ernest & Son Inc","2311 W Jefferson St","19121","ERNEST & SON INC","Unverified","Sharswood","1","","999977","Nonclassified Establishments","99999004","Unclassified Establishments","","Single Loc","14","1 - 1,499","039.977794","-075.172997"
"Esc VR LLC","2109 W Master St","19121","ESC VR LLC","Unverified","Sharswood","2","","999977","Nonclassified Establishments","99999004","Unclassified Establishments","","Single Loc","4","","039.976159","-075.170625"
"Evon's Tasty Treats","2212 Stewart St # D","19121","","Unverified","Sharswood","1","","999977","Nonclassified Establishments","99999004","Unclassified Establishments","","Single Loc","4","","039.977205","-075.172354"
"Exclusive Luxe Events LLC","1430 N 22nd St # A2","19121","EXCLUSIVE LUXE EVENTS LLC","Unverified","Sharswood","1","","738944","Events-Special","71131004","Promoters Of Performing Arts, Sports, And Similar","1 to 4","Single Loc","4","","039.977255","-075.171633"
"Excote","2437 N College Ave","19121","","Unverified","Sharswood","2","","999977","Nonclassified Establishments","99999004","Unclassified Establishments","","Single Loc","2","","039.974530","-075.176879"
"Expedited Response Trnsprtn Co","2316 W Oxford St","19121","","Unverified","Sharswood","1","","478977","Transportation","48821008","Support Activities For Rail Transportation","1 to 4","Single Loc","4","","039.979144","-075.173135"
"Exquisite Engraving LLC","2217 W Seybert St","19121","EXQUISITE ENGRAVING LLC","Unverified","Sharswood","2","","999977","Nonclassified Establishments","99999004","Unclassified Establishments","","Single Loc","3","","039.975570","-075.172557"
"Exquisti LLC","1440 N 21st St","19121","EXQUISTI LLC","Unverified","Sharswood","2","","999977","Nonclassified Establishments","99999004","Unclassified Establishments","","Single Loc","4","","039.977053","-075.170042"
"Fair Estates LLC","2442 W Jefferson St","19121","FAIR ESTATES LLC","Unverified","Sharswood","1","","799919","Carnivals","71119002","Other Performing Arts Companies","1 to 4","Single Loc","4","","039.977985","-075.175989"
"Faith Tabernacle Church Of God","2433 W Master St","19121","FAITH TABERNACLE CHURCH OF GOD","Unverified","Sharswood","1","","866107","Churches","81311008","Religious Organizations","1 to 4","Single Loc","14","1,500 - 2,499","039.976866","-075.176228"
"Fast Cash Inc","2012 Ridge Ave","19121","FAST CASH INC","Unverified","Sharswood","2","","609903","Check Cashing Service","52232003","Financial Transactions Processing, Reserve, And Cl","1 to 4","Single Loc","18","1,500 - 2,499","039.975600","-075.168701"
"First Step Acad Day Care","2100 Bolton St","19121","","Unverified","Sharswood","2","","835101","Child Care Service","62441003","Child Care Services","1 to 4","Single Loc","4","","039.978018","-075.170324"
"Flirt LLC","2431 W Master St","19121","FLIRT LLC","Unverified","Sharswood","1","","999977","Nonclassified Establishments","99999004","Unclassified Establishments","","Single Loc","6","1 - 1,499","039.976858","-075.176156"
"Fluidedge Consulting","2221 W Master St","19121","","Unverified","Sharswood","1","","874264","Consulting Services","54161113","Administrative Management And General Management C","1 to 4","Single Loc","2","","039.976435","-075.172783"
"FMJ Electrical Contracting","2415 W Jefferson St","19121","","Unverified","Sharswood","1","","173101","Electric Contractors","23821007","Electrical Contractors And Other Wiring Installati","1 to 4","Single Loc","15","1 - 1,499","039.978132","-075.175200"
"Food Love Simplicity LLC","2114 W Jefferson St","19121","FOOD LOVE SIMPLICITY LLC","Unverified","Sharswood","2","","581208","Restaurants","72251117","Full-Service Restaurants","5 to 9","Single Loc","4","","039.977239","-075.170478"
"Foothills Baptist Church","1205 N Taylor St","19121","","Unverified","Sharswood","2","","866107","Churches","81311008","Religious Organizations","1 to 4","Single Loc","2","","039.974828","-075.176309"
"Freedom Library Day School Inc","2064 Ridge Ave","19121","FREEDOM LIBRARY DAY SCHOOL INC","Unverified","Sharswood","2","","821103","Schools","61111007","Elementary And Secondary Schools","50 to 99","Single Loc","4","","039.977028","-075.169517"
"From D Inside Out LLC","2248 Stewart St","19121","FROM D INSIDE/OUT LLC","Unverified","Sharswood","1","","152139","Remodeling & Repairing Building Contractors","23611823","Residential Remodelers","1 to 4","Single Loc","12","2,500 - 4,999","039.977250","-075.172680"
"Front Line Mechanical Inc","1410 N 23rd St","19121","FRONT LINE MECHANICAL INC","Unverified","Sharswood","1","","171114","Mechanical Contractors","23821038","Electrical Contractors And Other Wiring Installati","1 to 4","Single Loc","4","","039.976689","-075.173524"
"Fugetaboutit LLC","2430 W Jefferson St","19121","FUGETABOUTIT LLC","Unverified","Sharswood","1","","999977","Nonclassified Establishments","99999004","Unclassified Establishments","","Single Loc","4","","039.977942","-075.175673"
"FW Express LLC","1210 N 24th St","19121","FW EXPRESS LLC","Unverified","Sharswood","2","","999977","Nonclassified Establishments","99999004","Unclassified Establishments","","Single Loc","4","","039.975002","-075.175538"
"Gaza Variety","2058 Ridge Ave","19121","","Unverified","Sharswood","2","","533101","Variety Stores","45521903","All Other General Merchandise Retailers","1 to 4","Single Loc","4","","039.976910","-075.169451"
"GCL Communications","2307 N College Ave","19121","","Unverified","Sharswood","2","","738999","Business Services NEC","56199001","All Other Support Services","1 to 4","Single Loc","15","1,500 - 2,499","039.974814","-075.174053"
"Gelat'Oh! Brick & Motor","1261 N 23rd St","19121","","Unverified","Sharswood","2","","506333","Electric Motors-Dlrs/Repairing (Whls)","42361023","Electrical Apparatus And Equipment, Wiring Supplie","1 to 4","Single Loc","6","2,500 - 4,999","039.974921","-075.173565"
"Genius Elogistics LLC","1446 N 21st St","19121","GENIUS ELOGISTICS LLC","Unverified","Sharswood","2","","999977","Nonclassified Establishments","99999004","Unclassified Establishments","","Single Loc","4","","039.977077","-075.170038"
"George Woods Inc","2101 N College Ave","19121","GEORGE WOODS INC","Unverified","Sharswood","2","","999977","Nonclassified Establishments","99999004","Unclassified Establishments","","Single Loc","3","","039.975227","-075.171211"
"George's Inc","1524 N 23rd St","19121","GEORGE'S INC","Unverified","Sharswood","1","","999977","Nonclassified Establishments","99999004","Unclassified Establishments","","Single Loc","3","","039.979368","-075.172890"
"Get Busy Cleaning LLC","1416b N 22nd St","19121","GET BUSY CLEANING LLC","Unverified","Sharswood","1","","999977","Nonclassified Establishments","99999004","Unclassified Establishments","","Single Loc","3","","039.976675","-075.171912"
"Gift Of Helps Home Care Agency","2100 Ridge Ave # 3","19121","","Unverified","Sharswood","2","","808201","Home Health Service","62161001","Home Health Care Services","1 to 4","Single Loc","4","","039.977905","-075.170048"
"Girard College Alumni Assn","2101 S College Ave # 605","19121","","Unverified","Sharswood","3","","861102","Associations","81391002","Business Associations","1 to 4","Single Loc","33","2,500 - 4,999","039.973010","-075.170870"
"Girard Court Apartments LP","2101 N College Ave # H2","19121","","Unverified","Sharswood","2","","651303","Apartments","53111002","Lessors Of Residential Buildings And Dwellings","1 to 4","Single Loc","37","2,500 - 4,999","039.975227","-075.171211"
"Girard Estate Fee","2101 N College Ave # A6","19121","","Unverified","Sharswood","2","","999977","Nonclassified Establishments","99999004","Unclassified Establishments","","Single Loc","9","1 - 1,499","039.975227","-075.171211"
"Global Citizen","2101 S College Ave","19121","","Unverified","Sharswood","3","","999977","Nonclassified Establishments","99999004","Unclassified Establishments","","Single Loc","2","","039.972736","-075.173275"
"Good Shepard Outreach Svc","1326 N 22nd St","19121","GOOD SHEPARD OUTREACH SVC","Unverified","Sharswood","2","","899999","Services NEC","54199009","All Other Professional, Scientific, And Technical","1 to 4","Single Loc","4","","039.975966","-075.172079"
"Gorjess LLC","1326 N 22nd St","19121","GORJESS LLC","Unverified","Sharswood","2","","999977","Nonclassified Establishments","99999004","Unclassified Establishments","","Single Loc","4","","039.975966","-075.172079"
"Graham Enterprises","2400 W Jefferson St # 2","19121","GRAHAM'S ENTERPRISES INC","Unverified","Sharswood","1","","999977","Nonclassified Establishments","99999004","Unclassified Establishments","","Single Loc","15","1 - 1,499","039.977844","-075.174868"
"Great Lakes Honda","2101 S College Ave","19121","","Unverified","Sharswood","3","","551102","Automobile Dealers-New Cars","44111001","New Car Dealers","10 to 19","Single Loc","3","","039.972736","-075.173275"
"Greater St Luke Child Care Svc","2124 W Oxford St","19121","","Unverified","Sharswood","2","","835101","Child Care Service","62441003","Child Care Services","1 to 4","Single Loc","4","","039.978584","-075.170911"
"Green & Green Logistics LLC","2117 Sharswood St","19121","GREEN & GREEN LOGISTICS LLC","Unverified","Sharswood","2","","999977","Nonclassified Establishments","99999004","Unclassified Establishments","","Single Loc","3","","039.976843","-075.170565"
"H & H Cleaning Svc","2225 N College Ave","19121","","Unverified","Sharswood","2","","734902","Janitor Service","56172001","Janitorial Services","1 to 4","Single Loc","4","","039.974888","-075.173047"
"Ha Ya Transportation LLC","1414c N 23rd St # C","19121","HA YA TRANSPORTATION LLC","Unverified","Sharswood","1","","478977","Transportation","48821008","Support Activities For Rail Transportation","1 to 4","Single Loc","4","","039.976833","-075.173395"
"Haber Group","1408 N 21st St","19121","","Unverified","Sharswood","2","","999977","Nonclassified Establishments","99999004","Unclassified Establishments","","Single Loc","2","","039.976282","-075.170339"
"Hamer Consulting LLC","2332 W Thompson St","19121","HAMER CONSULTING LLC","Unverified","Sharswood","2","","874899","Consultants-Business NEC","54161830","Other Management Consulting Services","1 to 4","Single Loc","4","","039.975079","-075.174668"
"Hamid Flips LLC","1329 N 21st St","19121","HAMID FLIPS LLC","Unverified","Sharswood","2","","999977","Nonclassified Establishments","99999004","Unclassified Establishments","","Single Loc","3","","039.975297","-075.170173"
"Hand Full Of Skills Cntrctng","2347 W Thompson St","19121","","Unverified","Sharswood","2","","179977","Contractors","23899018","All Other Specialty Trade Contractors","1 to 4","Single Loc","4","","039.975428","-075.175077"
"Hand In Hand Flowers","2101 S College Ave","19121","","Unverified","Sharswood","3","","599201","Florists-Retail","45931001","Florists","1 to 4","Single Loc","1","","039.972736","-075.173275"
"Handmade Picture","2225 N College Ave","19121","","Unverified","Sharswood","2","","781205","Motion Picture Producers & Studios","51211008","Motion Picture And Video Production","1 to 4","Single Loc","12","1 - 1,499","039.974888","-075.173047"
"Happy Little Hearts Learning","2127 W Seybert St","19121","","Unverified","Sharswood","2","","835101","Child Care Service","62441003","Child Care Services","1 to 4","Single Loc","4","","039.975574","-075.171355"
"Heaven's Touch Cafe","2006 Ridge Ave","19121","","Unverified","Sharswood","2","","581208","Restaurants","72251117","Full-Service Restaurants","1 to 4","Single Loc","14","1 - 1,499","039.975453","-075.168634"
"Helping Hand Cmnty Devmnt Corp","2124 W Oxford St","19121","HELPING HAND CMNTY DEVMNT CORP","Unverified","Sharswood","2","","999977","Nonclassified Establishments","99999004","Unclassified Establishments","","Single Loc","4","","039.978584","-075.170911"
"Herod's Estates LLC","2207 W Thompson St # C","19121","HEROD'S ESTATES LLC","Unverified","Sharswood","2","","999977","Nonclassified Establishments","99999004","Unclassified Establishments","","Single Loc","4","","039.975080","-075.172381"
"High Time Realty LLC","2435 W Master St # A","19121","HIGH TIME REALTY LLC","Unverified","Sharswood","1","","653118","Real Estate","53121003","Offices Of Real Estate Agents And Brokers","1 to 4","Single Loc","3","","039.976874","-075.176301"
"Holiday House Productions LLC","1218 N Ringgold St","19121","HOLIDAY HOUSE PRODUCTIONS LLC","Unverified","Sharswood","2","","999977","Nonclassified Establishments","99999004","Unclassified Establishments","","Single Loc","3","","039.975076","-075.176056"
"Holy Bethel Church","2400 W Master St","19121","HOLY BETHEL CHURCH","Unverified","Sharswood","2","","866107","Churches","81311008","Religious Organizations","1 to 4","Single Loc","42","1,500 - 2,499","039.976453","-075.175183"
"Hope Baptist Church","2227 W Master St","19121","HOPE BAPTIST CHURCH OF PHILADELPHIA","Unverified","Sharswood","1","","866107","Churches","81311008","Religious Organizations","1 to 4","Single Loc","15","1,500 - 2,499","039.976450","-075.172889"
"Hope Christian Academy","2222 W Master St","19121","","Unverified","Sharswood","2","","821103","Schools","61111007","Elementary And Secondary Schools","50 to 99","Single Loc","4","","039.976127","-075.172577"
"Hope Christian Tabernacle Chr","2222 W Master St","19121","HOPE CHRISTIAN TABERNACLE","Unverified","Sharswood","2","","866107","Churches","81311008","Religious Organizations","1 to 4","Single Loc","37","1,500 - 2,499","039.976127","-075.172577"
"Hotel Lasalle Inc","2026 Ridge Ave","19121","HOTEL LASALLE INC","Unverified","Sharswood","2","","701101","Hotels & Motels","72111002","Hotels (Except Casino Hotels) And Motels","10 to 19","Single Loc","4","","039.976045","-075.169080"
"Hume Family Enterprises LLC","2403 W Master St","19121","HUME FAMILY ENTERPRISES LLC","Unverified","Sharswood","1","","999977","Nonclassified Establishments","99999004","Unclassified Establishments","","Single Loc","4","","039.976726","-075.175165"
"Humphreys-Barry Co","2431 W Jefferson St","19121","","Unverified","Sharswood","1","","999977","Nonclassified Establishments","99999004","Unclassified Establishments","","Single Loc","4","","039.978189","-075.175652"
"Hya'St Parties","2225 N College Ave","19121","","Unverified","Sharswood","2","","729989","Party Planning Service","81299057","All Other Personal Services","1 to 4","Single Loc","12","1,500 - 2,499","039.974888","-075.173047"
"Iba","2428 W Thompson St","19121","","Unverified","Sharswood","2","","999977","Nonclassified Establishments","99999004","Unclassified Establishments","","Single Loc","3","","039.975299","-075.176573"
"Ichi Ramen LLC","2110 Ridge Ave","19121","ICHI RAMEN LLC","Unverified","Sharswood","2","","581208","Restaurants","72251117","Full-Service Restaurants","5 to 9","Single Loc","4","","039.978129","-075.170176"
"Imperial Events Security Svc","2445 Harlan St","19121","","Unverified","Sharswood","1","","999977","Nonclassified Establishments","99999004","Unclassified Establishments","","Single Loc","2","","039.977163","-075.176139"
"In God We Trust/USA Inc","2415 W Seybert St","19121","IN GOD WE TRUST/USA INC","Unverified","Sharswood","2","","866107","Churches","81311008","Religious Organizations","1 to 4","Single Loc","4","","039.976003","-075.175588"
"Isaac Mini Market II Inc Dba","2012 Ridge Ave","19121","","Unverified","Sharswood","2","","999977","Nonclassified Establishments","99999004","Unclassified Establishments","","Single Loc","4","","039.975600","-075.168701"
"Iw III Inc","2012 Ridge Ave","19121","IW III INC","Unverified","Sharswood","2","","999977","Nonclassified Establishments","99999004","Unclassified Establishments","","Single Loc","4","","039.975600","-075.168701"
"J B Cornell Co","2110 Ridge Ave","19121","","Unverified","Sharswood","2","","999977","Nonclassified Establishments","99999004","Unclassified Establishments","","Single Loc","4","","039.978129","-075.170176"
"JDCS Millennium LLC","2422 W Thompson St","19121","JDCS MILLENNIUM LLC","Unverified","Sharswood","2","","999977","Nonclassified Establishments","99999004","Unclassified Establishments","","Single Loc","1","","039.975287","-075.176194"
"Jehovah Jireh Ministries","2227 W Master St","19121","","Unverified","Sharswood","1","","866107","Churches","81311008","Religious Organizations","1 to 4","Single Loc","9","1,500 - 2,499","039.976450","-075.172889"
"Jiwi Rental Assn Inc","2349 W Thompson St","19121","JIWI RENTAL ASSN INC","Unverified","Sharswood","2","","861102","Associations","81391002","Business Associations","1 to 4","Single Loc","4","","039.975434","-075.175135"
"JT Mills Restua Corp","2418 W Seybert St","19121","JT MILLS RESTUA CORP","Unverified","Sharswood","2","","999977","Nonclassified Establishments","99999004","Unclassified Establishments","","Single Loc","1","","039.975802","-075.175775"
"Judah Ministries","2450 W Jefferson St","19121","","Unverified","Sharswood","1","","866107","Churches","81311008","Religious Organizations","1 to 4","Single Loc","15","1,500 - 2,499","039.978013","-075.176211"
"K & B Landscaping","2406 W Jefferson St","19121","K & B LANDSCAPING SVC INC","Unverified","Sharswood","1","","078204","Landscape Contractors","56173009","Landscaping Services","1 to 4","Single Loc","6","1,500 - 2,499","039.977867","-075.175042"
"Keller Williams Real Estate","2417 Ingersoll St","19121","","Unverified","Sharswood","2","","653118","Real Estate","53121003","Offices Of Real Estate Agents And Brokers","5 to 9","Single Loc","5","","039.976332","-075.175585"
"Kendall Horizons LLC","2406 Sharswood St","19121","KENDALL HORIZONS LLC","Unverified","Sharswood","1","","999977","Nonclassified Establishments","99999004","Unclassified Establishments","","Single Loc","4","","039.977188","-075.175190"
"Kev Nyce Enterprise LLC","1430 N 22nd St # C","19121","KEV NYCE ENTERPRISE LLC","Unverified","Sharswood","1","","999977","Nonclassified Establishments","99999004","Unclassified Establishments","","Single Loc","4","","039.976663","-075.171780"
"Keystone Home Owners Co Inc","1404 N 21st St","19121","KEYSTONE HOME OWNERS CO INC","Unverified","Sharswood","2","","999977","Nonclassified Establishments","99999004","Unclassified Establishments","","Single Loc","4","","039.976186","-075.170359"
"Kids R Special Clubhouse Inc","2100 Bolton St","19121","KIDS R SPECIAL CLUBHOUSE INC","Unverified","Sharswood","2","","835101","Child Care Service","62441003","Child Care Services","5 to 9","Single Loc","15","1,500 - 2,499","039.978018","-075.170324"
"Kindergarten Prep Academy","2120 W Jefferson St","19121","","Unverified","Sharswood","2","","821103","Schools","61111007","Elementary And Secondary Schools","50 to 99","Single Loc","4","","039.977289","-075.170654"
"King's Drug Store","2401 W Master St","19121","","Unverified","Sharswood","1","","591205","Pharmacies","45611009","Pharmacies And Drug Retailers","5 to 9","Single Loc","4","","039.976742","-075.175126"
"Kingdom Workers Outreach","1210 N 24th St","19121","KINGDOM WORKERS OUTREACH DELIVERANCE EVANGELISTIC MINISTRIES INC","Unverified","Sharswood","2","","866110","Religious Organizations","81311021","Religious Organizations","1 to 4","Single Loc","12","2,500 - 4,999","039.975002","-075.175538"
"Knots N-Tangles","2004 Ridge Ave","19121","","Unverified","Sharswood","2","","999977","Nonclassified Establishments","99999004","Unclassified Establishments","","Single Loc","4","","039.975410","-075.168605"
"L & T Infotech","2347 N College Ave","19121","","Unverified","Sharswood","2","","999977","Nonclassified Establishments","99999004","Unclassified Establishments","","Single Loc","3","","039.974715","-075.175151"
"La'Chanel LLC","2033 W Master St","19121","LA'CHANEL LLC","Unverified","Sharswood","2","","999977","Nonclassified Establishments","99999004","Unclassified Establishments","","Single Loc","4","","039.976021","-075.169532"
"Lab","2205 W Thompson St","19121","","Unverified","Sharswood","2","","873104","Laboratories","54171414","Research And Development In Biotechnology (Except","10 to 19","Single Loc","7","40,000 - 99,999","039.975074","-075.172324"
"Ladystayed Home Care","1415 N 21st St","19121","","Unverified","Sharswood","2","","808201","Home Health Service","62161001","Home Health Care Services","5 to 9","Single Loc","4","","039.976361","-075.169932"
"Lavender Curves LTD","1202 N Ringgold St","19121","","Unverified","Sharswood","2","","799101","Health Clubs Studios & Gymnasiums","71394011","Fitness And Recreational Sports Centers","1 to 4","Single Loc","4","","039.974771","-075.176116"
"Lena Delux Delivery Svc LLC","2232d Stewart St","19121","LENA DELUX DELIVERY SVC LLC","Unverified","Sharswood","1","","421205","Delivery Service","48411004","General Freight Trucking, Local","1 to 4","Single Loc","3","","039.977230","-075.172535"
"Leonard's Place LLC","2127 W Jefferson St","19121","LEONARD'S PLACE LLC","Unverified","Sharswood","2","","999977","Nonclassified Establishments","99999004","Unclassified Establishments","","Single Loc","4","","039.977599","-075.170855"
"Lescheuvux","2004 Ridge Ave","19121","","Unverified","Sharswood","2","","723106","Beauty Salons","81211202","Beauty Salons","1 to 4","Single Loc","14","1 - 1,499","039.975410","-075.168605"
"Li Tayyibat LLC","2438 W Seybert St","19121","LI TAYYIBAT LLC","Unverified","Sharswood","2","","999977","Nonclassified Establishments","99999004","Unclassified Establishments","","Single Loc","4","","039.975869","-075.176259"
"Liberty Bell Cleaning LLC","2405 N College Ave","19121","LIBERTY BELL CLEANING LLC","Unverified","Sharswood","2","","734902","Janitor Service","56172001","Janitorial Services","1 to 4","Single Loc","4","","039.974526","-075.175649"
"License Consultants","2439 N College Ave","19121","","Unverified","Sharswood","2","","874899","Consultants-Business NEC","54161830","Other Management Consulting Services","1 to 4","Single Loc","6","1,500 - 2,499","039.974511","-075.176950"
"Life Soul Entertainment Inc","1434 N 24th St","19121","LIFE SOUL ENTERTAINMENT INC","Unverified","Sharswood","1","","792905","Entertainment Bureaus","71119007","Other Performing Arts Companies","1 to 4","Single Loc","4","","039.977562","-075.174993"
"Limitless Building Inc","2109 W Seybert St","19121","LIMITLESS BUILDING INC","Unverified","Sharswood","2","","999977","Nonclassified Establishments","99999004","Unclassified Establishments","","Single Loc","3","","039.975622","-075.170835"
"Linley Equities LLC","2101 N College Ave","19121","LINLEY EQUITIES LLC","Unverified","Sharswood","2","","999977","Nonclassified Establishments","99999004","Unclassified Establishments","","Single Loc","4","","039.975227","-075.171211"
"Liquor Control Board","2100 Ridge Ave","19121","","Unverified","Sharswood","2","","592102","Liquors-Retail","44532004","Beer, Wine, And Liquor Retailers","1 to 4","Single Loc","15","1,500 - 2,499","039.977905","-075.170048"
"Loney Engineering & Consltng","2037 N College Ave # C","19121","","Unverified","Sharswood","2","","871106","Engineers","54133006","Engineering Services","1 to 4","Single Loc","1","","039.975170","-075.169800"
"Longest Run Clothing Co","2132 W Jefferson St","19121","LONGEST RUN CLOTHING CO","Unverified","Sharswood","2","","565101","Clothing-Retail","45811041","Clothing And Clothing Accessories Retailers","1 to 4","Single Loc","3","","039.977328","-075.170963"
"Lookaway Golf Club","2110 W Jefferson St","19121","","Unverified","Sharswood","2","","799201","Golf Courses","71391002","Golf Courses And Country Clubs","20 to 49","Single Loc","3","","039.977242","-075.170371"
"Lovable Care Bears Day Care","1265 N 23rd St","19121","","Unverified","Sharswood","2","","835101","Child Care Service","62441003","Child Care Services","1 to 4","Single Loc","4","","039.974999","-075.173548"
"Loveyourselfbeyondlimits LLC","2221 W Master St # F","19121","LOVEYOURSELFBEYONDLIMITS LLC","Unverified","Sharswood","1","","999977","Nonclassified Establishments","99999004","Unclassified Establishments","","Single Loc","4","","039.976435","-075.172783"
"Luciano & Assoc LLC","2205 W Thompson St","19121","LUCIANO & ASSOC LLC","Unverified","Sharswood","2","","653108","Real Estate Management","53121005","Offices Of Real Estate Agents And Brokers","1 to 4","Single Loc","11","","039.975074","-075.172324"
"Lucky Furniture Inc","2108 Ridge Ave","19121","LUCKY FURNITURE INC","Unverified","Sharswood","2","","571216","Furniture-Dealers-Retail","44911012","Furniture Retailers","1 to 4","Single Loc","4","","039.978094","-075.170138"
"Luxuries By Elizabeth LLC","2101 N College Ave # G7","19121","LUXURIES BY ELIZABETH LLC","Unverified","Sharswood","2","","999977","Nonclassified Establishments","99999004","Unclassified Establishments","","Single Loc","4","","039.975227","-075.171211"
"Lyriq's Closet LLC","2128 W Jefferson St","19121","LYRIQ'S CLOSET LLC","Unverified","Sharswood","2","","565101","Clothing-Retail","45811041","Clothing And Clothing Accessories Retailers","1 to 4","Single Loc","4","","039.977316","-075.170866"
"Marlayhas Hair & Skincare","2212 Stewart St","19121","MARLAYHAS HAIR & SKINCARE","Unverified","Sharswood","1","","723106","Beauty Salons","81211202","Beauty Salons","1 to 4","Single Loc","3","","039.977205","-075.172354"
"Master Construction Co","2230 W Master St","19121","","Unverified","Sharswood","2","","152144","Construction Companies","23611512","New Single-Family Housing Construction (Except For","1 to 4","Single Loc","4","","039.976139","-075.172808"
"Master Rebuilders Inc","2027 W Master St # 1","19121","MASTER REBUILDERS INC","Unverified","Sharswood","2","","999977","Nonclassified Establishments","99999004","Unclassified Establishments","","Single Loc","4","","039.976008","-075.169365"
"Mathes Electric Supply","2341 W Thompson St","19121","","Unverified","Sharswood","2","","999977","Nonclassified Establishments","99999004","Unclassified Establishments","","Single Loc","2","","039.975403","-075.174910"
"Mature Mentoring","2444 W Jefferson St","19121","","Unverified","Sharswood","1","","999977","Nonclassified Establishments","99999004","Unclassified Establishments","","Single Loc","4","","039.977992","-075.176041"
"Mckain, E","2019 W Jefferson St","19121","","Unverified","Sharswood","2","","726103","Funeral Directors","81221002","Funeral Homes And Funeral Services","1 to 4","Single Loc","14","1,500 - 2,499","039.977361","-075.168870"
"Mckendricks Munchies LLC","2130 W Master St","19121","MCKENDRICKS MUNCHIES LLC","Unverified","Sharswood","2","","999977","Nonclassified Establishments","99999004","Unclassified Establishments","","Single Loc","4","","039.975943","-075.171221"
"Mcnaircreative Branding-Comm","2101 S College Ave","19121","","Unverified","Sharswood","3","","489903","Communications","51781001","All Other Telecommunications","1 to 4","Single Loc","8","2,500 - 4,999","039.972736","-075.173275"
"MCS Group Inc/Montgomery","2431 Sharswood St","19121","","Unverified","Sharswood","1","","999977","Nonclassified Establishments","99999004","Unclassified Establishments","","Single Loc","1","","039.977487","-075.175760"
"Medical Receptionist Ntwrk LLC","2343 N College Ave","19121","MEDICAL RECEPTIONIST NTWRK LLC","Unverified","Sharswood","2","","999977","Nonclassified Establishments","99999004","Unclassified Establishments","","Single Loc","5","","039.974725","-075.175040"
"Melvin & Melvin Contracting","2017 N College Ave","19121","","Unverified","Sharswood","2","","999977","Nonclassified Establishments","99999004","Unclassified Establishments","","Single Loc","1","","039.975357","-075.169019"
"Messiah Bible Missions","2418 W Seybert St","19121","","Unverified","Sharswood","2","","866107","Churches","81311008","Religious Organizations","1 to 4","Single Loc","4","","039.975802","-075.175775"
"Mex Gastronomica LLC","2242 W Seybert St","19121","MEX GASTRONOMICA LLC","Unverified","Sharswood","2","","999977","Nonclassified Establishments","99999004","Unclassified Establishments","","Single Loc","4","","039.975437","-075.173237"
"Miarott Crafts LLC","2108 W Master St","19121","MIAROTT CRAFTS LLC","Unverified","Sharswood","2","","594520","Crafts","45912012","Hobby, Toy, And Game Retailers","1 to 4","Single Loc","4","","039.975881","-075.170591"
"Michael Queen Contracting LLC","2330 W Seybert St","19121","MICHAEL QUEEN CONTRACTING LLC","Unverified","Sharswood","2","","999977","Nonclassified Establishments","99999004","Unclassified Establishments","","Single Loc","3","","039.975605","-075.174507"
