"Company Name","Address","ZIP Code","Legal Name","Record Type","Neighborhood","Census Block Group","Company Description","Primary SIC Code","Primary SIC Description","Primary NAICS","Primary NAICS Description","Location Employee Size Range","Location Type","Years In Database","Square Footage","Latitude","Longitude"
"Miller Rothlein","2101 S College Ave","19121","","Unverified","Sharswood","3","","999977","Nonclassified Establishments","99999004","Unclassified Establishments","","Single Loc","12","1 - 1,499","039.972736","-075.173275"
"Milley Meals LLC","2405 W Jefferson St","19121","MILLEY MEALS LLC","Unverified","Sharswood","1","","999977","Nonclassified Establishments","99999004","Unclassified Establishments","","Single Loc","4","","039.978181","-075.174898"
"Miracle Revival Deliverance","2072 Ridge Ave","19121","","Unverified","Sharswood","2","","866107","Churches","81311008","Religious Organizations","1 to 4","Single Loc","4","","039.977394","-075.169677"
"Miro Dance Theatre","2101 S College Ave","19121","","Unverified","Sharswood","3","","791101","Dancing Instruction","61161011","Fine Arts Schools","1 to 4","Single Loc","5","","039.972736","-075.173275"
"Modern Konvention LLC","2111 W Jefferson St","19121","MODERN KONVENTION LLC","Unverified","Sharswood","2","","999977","Nonclassified Establishments","99999004","Unclassified Establishments","","Single Loc","4","","039.977582","-075.170293"
"Molly's World LLC","2105 W Jefferson St","19121","MOLLY'S WORLD LLC","Unverified","Sharswood","2","","999977","Nonclassified Establishments","99999004","Unclassified Establishments","","Single Loc","4","","039.977512","-075.170163"
"Moore Treats 4 U LLC","2300 W Master St","19121","MOORE TREATS 4 U LLC","Unverified","Sharswood","2","","999977","Nonclassified Establishments","99999004","Unclassified Establishments","","Single Loc","2","","039.976239","-075.174217"
"Motef Co","2216 W Oxford St","19121","MOTEF CO","Unverified","Sharswood","1","","999977","Nonclassified Establishments","99999004","Unclassified Establishments","","Single Loc","3","","039.978967","-075.171710"
"MPL Corp","2101 S College Ave","19121","MPL CORP","Unverified","Sharswood","3","","999977","Nonclassified Establishments","99999004","Unclassified Establishments","","Single Loc","3","","039.972736","-075.173275"
"Mt Calvary Apostolic Chr-God","2450 W Jefferson St","19121","","Unverified","Sharswood","1","","866107","Churches","81311008","Religious Organizations","1 to 4","Single Loc","4","","039.978013","-075.176211"
"Mt Tabor AME Church","2222 W Master St","19121","","Unverified","Sharswood","2","","866107","Churches","81311008","Religious Organizations","1 to 4","Single Loc","42","1,500 - 2,499","039.976127","-075.172577"
"Muchiez LLC","2413 Sharswood St","19121","MUCHIEZ LLC","Unverified","Sharswood","1","","999977","Nonclassified Establishments","99999004","Unclassified Establishments","","Single Loc","4","","039.977436","-075.175314"
"Muse By Miraye LLC","2341 W Thompson St","19121","MUSE BY MIRAYE LLC","Unverified","Sharswood","2","","999977","Nonclassified Establishments","99999004","Unclassified Establishments","","Single Loc","3","","039.975403","-075.174910"
"My Lawn Irrigation Lighting","2221 W Master St # A2","19121","","Unverified","Sharswood","1","","999977","Nonclassified Establishments","99999004","Unclassified Establishments","","Single Loc","2","","039.976435","-075.172783"
"My Sister's Journey LLC","2343 N College Ave # 1","19121","MY SISTER'S JOURNEY LLC","Unverified","Sharswood","2","","999977","Nonclassified Establishments","99999004","Unclassified Establishments","","Single Loc","4","","039.974725","-075.175040"
"My Turn 2 Learn Daycare Ctr","2101 S College Ave","19121","","Unverified","Sharswood","3","","835101","Child Care Service","62441003","Child Care Services","1 to 4","Single Loc","14","1,500 - 2,499","039.972736","-075.173275"
"Myoswego","1501 N 24th St","19121","","Unverified","Sharswood","1","","999977","Nonclassified Establishments","99999004","Unclassified Establishments","","Single Loc","2","","039.978044","-075.174278"
"N & F General Contractor Inc","2026 Ridge Ave","19121","N & F GENERAL CONTRACTOR INC","Unverified","Sharswood","2","","152103","General Contractors","23611505","New Single-Family Housing Construction (Except For","1 to 4","Single Loc","13","1,500 - 2,499","039.976045","-075.169080"
"Nanbrowri Music Co","2035 N College Ave","19121","","Unverified","Sharswood","2","","999977","Nonclassified Establishments","99999004","Unclassified Establishments","","Single Loc","4","","039.975262","-075.169750"
"Nash Dog Walking","2427 W Master St","19121","","Unverified","Sharswood","1","","729938","Pet Exercising Service","81299047","All Other Personal Services","1 to 4","Single Loc","7","1 - 1,499","039.976842","-075.176016"
"National Steel Corp","2337 N College Ave","19121","NATIONAL STEEL CORP","Unverified","Sharswood","2","","999977","Nonclassified Establishments","99999004","Unclassified Establishments","","Single Loc","2","","039.974740","-075.174867"
"Nationwide Auditors LLC","2430 W Jefferson St","19121","NATIONWIDE AUDITORS LLC","Unverified","Sharswood","1","","999977","Nonclassified Establishments","99999004","Unclassified Establishments","","Single Loc","3","","039.977942","-075.175673"
"Neane's Sweet Treats LLC","2300 W Master St # 3-315","19121","NEANE'S SWEET TREATS LLC","Unverified","Sharswood","2","","999977","Nonclassified Establishments","99999004","Unclassified Establishments","","Single Loc","2","","039.976239","-075.174217"
"Ned Ventures LLC","2331 W Thompson St","19121","NED VENTURES LLC","Unverified","Sharswood","2","","999977","Nonclassified Establishments","99999004","Unclassified Establishments","","Single Loc","4","","039.975370","-075.174628"
"New Cumberland Public Library","2300 W Jefferson St","19121","","Unverified","Sharswood","1","","823106","Libraries-Public","51921006","Libraries And Archives","5 to 9","Single Loc","1","","039.977677","-075.174164"
"New Era Seminary","2220 W Master St","19121","","Unverified","Sharswood","2","","866107","Churches","81311008","Religious Organizations","1 to 4","Single Loc","4","","039.976134","-075.172630"
"New Hope Bible Deliverance Chr","2421 Sharswood St","19121","","Unverified","Sharswood","1","","866107","Churches","81311008","Religious Organizations","1 to 4","Single Loc","4","","039.977457","-075.175510"
"New Meridian Arts","2410 W Jefferson St","19121","","Unverified","Sharswood","1","","841202","Arts Organizations & Information","71211004","Museums","1 to 4","Single Loc","1","","039.977880","-075.175149"
"NF Contractors","2024 Ridge Ave","19121","","Unverified","Sharswood","2","","152103","General Contractors","23611505","New Single-Family Housing Construction (Except For","1 to 4","Single Loc","7","1,500 - 2,499","039.976016","-075.169021"
"Nha Development LLC","2429 W Thompson St","19121","NHA DEVELOPMENT LLC","Unverified","Sharswood","2","","999977","Nonclassified Establishments","99999004","Unclassified Establishments","","Single Loc","5","","039.975588","-075.176295"
"Nolettingup LLC","2411 N College Ave","19121","NOLETTINGUP LLC","Unverified","Sharswood","2","","999977","Nonclassified Establishments","99999004","Unclassified Establishments","","Single Loc","4","","039.974644","-075.175879"
"North Phila Districts 195-181","2445 Sharswood St","19121","","Unverified","Sharswood","1","","999977","Nonclassified Establishments","99999004","Unclassified Establishments","","Single Loc","4","","039.977529","-075.176106"
"Nova Energy","1204 N Ringgold St","19121","","Unverified","Sharswood","2","","999977","Nonclassified Establishments","99999004","Unclassified Establishments","","Single Loc","2","","039.974806","-075.176108"
"Nova Investments LLC","2343 N College Ave","19121","NOVA INVESTMENT LLC","Unverified","Sharswood","2","","621111","Investments","52391001","Miscellaneous Intermediation","1 to 4","Single Loc","7","5,000 - 9,999","039.974725","-075.175040"
"Nubi Management LLC","2440 W Jefferson St","19121","NUBI MANAGEMENT LLC","Unverified","Sharswood","1","","999977","Nonclassified Establishments","99999004","Unclassified Establishments","","Single Loc","4","","039.977968","-075.175938"
"Nurse101 LLC","2019 N College Ave # 2","19121","NURSE101 LLC","Unverified","Sharswood","2","","999977","Nonclassified Establishments","99999004","Unclassified Establishments","","Single Loc","3","","039.975352","-075.169073"
"Nustar Service CDC Inc","2435 W Thompson St","19121","NUSTAR SVC CDC INC","Unverified","Sharswood","2","","999977","Nonclassified Establishments","99999004","Unclassified Establishments","","Single Loc","3","","039.975584","-075.176465"
"Official Shades Of Brown LLC","2105 W Jefferson St","19121","OFFICIAL SHADES OF BROWN LLC","Unverified","Sharswood","2","","999977","Nonclassified Establishments","99999004","Unclassified Establishments","","Single Loc","3","","039.977512","-075.170163"
"Ona Service LLC","2111 W Master St # A","19121","ONA SERVICE LLC","Unverified","Sharswood","2","","899999","Services NEC","54199009","All Other Professional, Scientific, And Technical","1 to 4","Single Loc","4","","039.976165","-075.170686"
"Opulence Acquisitions LLC","1209 N Ringgold St","19121","OPULENCE ACQUISITIONS LLC","Unverified","Sharswood","2","","628207","Mergers & Acquisitions","52394013","Portfolio Management And Investment Advice","5 to 9","Single Loc","4","","039.974966","-075.175809"
"Out N The Wash Cleaning Svc","2130 W Master St","19121","","Unverified","Sharswood","2","","734902","Janitor Service","56172001","Janitorial Services","1 to 4","Single Loc","4","","039.975943","-075.171221"
"Oyvey Investments LLC","2430 W Jefferson St","19121","OYVEY INVESTMENTS LLC","Unverified","Sharswood","1","","621111","Investments","52391001","Miscellaneous Intermediation","1 to 4","Single Loc","4","","039.977942","-075.175673"
"Pai International Ent LLC","2207 W Thompson St","19121","PAI INTERNATIONAL ENT LLC","Unverified","Sharswood","2","","999977","Nonclassified Establishments","99999004","Unclassified Establishments","","Single Loc","4","","039.975080","-075.172381"
"Pappa Stopper Step In Lounge","2448 W Master St","19121","","Unverified","Sharswood","2","","581303","Cocktail Lounges","72241003","Drinking Places (Alcoholic Beverages)","1 to 4","Single Loc","4","","039.976679","-075.176478"
"Parkway 2 LLC","2430 W Jefferson St","19121","PARKWAY 2 LLC","Unverified","Sharswood","1","","999977","Nonclassified Establishments","99999004","Unclassified Establishments","","Single Loc","4","","039.977942","-075.175673"
"Pate's Barber & TV Shop","2412 W Thompson St","19121","","Unverified","Sharswood","2","","724101","Barbers","81211101","Barber Shops","1 to 4","Single Loc","42","1 - 1,499","039.975234","-075.175799"
"Peacetown Commons Land Trust","2226 W Jefferson St","19121","PEACETOWN COMMONS LAND TRUST","Unverified","Sharswood","1","","999977","Nonclassified Establishments","99999004","Unclassified Establishments","","Single Loc","3","","039.977660","-075.172900"
"Penger's","2110 Ridge Ave","19121","PENGERS","Unverified","Sharswood","2","","641112","Insurance","52421001","Insurance Agencies And Brokerages","1 to 4","Single Loc","12","1,500 - 2,499","039.978129","-075.170176"
"Pennsylvania State Police","2100 Ridge Ave","19121","","Unverified","Sharswood","2","","922102","State Government-Police","92212005","Police Protection","50 to 99","Single Loc","5","","039.977905","-075.170048"
"Peoples Neighborhood Housing","1410 N 21st St","19121","","Unverified","Sharswood","2","","999977","Nonclassified Establishments","99999004","Unclassified Establishments","","Single Loc","4","","039.976331","-075.170330"
"Pete's Pizza Inc","2036 Ridge Ave","19121","PETE'S PIZZA INC","Unverified","Sharswood","2","","581208","Restaurants","72251117","Full-Service Restaurants","1 to 4","Single Loc","6","1 - 1,499","039.976308","-075.169162"
"Petrus & Petrus Builders","2316 W Seybert St","19121","","Unverified","Sharswood","2","","154213","Building Contractors","23622005","Commercial And Institutional Building Construction","1 to 4","Single Loc","4","","039.975556","-075.174163"
"Pfizer","2238 W Oxford St # A","19121","","Unverified","Sharswood","1","","999977","Nonclassified Establishments","99999004","Unclassified Establishments","","Single Loc","2","","039.979047","-075.172388"
"Philadelphia Certified Group","2035 N College Ave","19121","","Unverified","Sharswood","2","","999977","Nonclassified Establishments","99999004","Unclassified Establishments","","Single Loc","1","","039.975262","-075.169750"
"Philadelphia District Office","1425 N 23rd St","19121","","Unverified","Sharswood","1","","999977","Nonclassified Establishments","99999004","Unclassified Establishments","","Single Loc","14","1 - 1,499","039.977098","-075.173184"
"Philadelphia Housing Authority","2311 W Jefferson St","19121","","Unverified","Sharswood","1","","912104","Government Offices-City/Village & Twp","92112006","Legislative Bodies","1 to 4","Single Loc","25","10,000 - 19,999","039.977794","-075.172997"
"Philadelphia Traveler's","2100 Ridge Ave","19121","","Unverified","Sharswood","2","","864108","Clubs","81341004","Civic And Social Organizations","20 to 49","Single Loc","4","","039.977905","-075.170048"
"Philly Fsbo LLC","2431 W Jefferson St","19121","PHILLY FSBO LLC","Unverified","Sharswood","1","","999977","Nonclassified Establishments","99999004","Unclassified Establishments","","Single Loc","3","","039.978189","-075.175652"
"Philly Proper LLC","2207 W Thompson St","19121","PHILLY PROPER LLC","Unverified","Sharswood","2","","999977","Nonclassified Establishments","99999004","Unclassified Establishments","","Single Loc","3","","039.975080","-075.172381"
"PHILLYBIKEADS.COM","2339 W Thompson St # A","19121","","Unverified","Sharswood","2","","731917","Advertising-Computer","54189002","Other Services Related To Advertising","1 to 4","Single Loc","4","","039.975396","-075.174854"
"Pinckney, Laval","2101 S College Ave","19121","","Unverified","Sharswood","3","","832282","Counselors","62419036","Other Individual And Family Services","1 to 4","Single Loc","11","1,500 - 2,499","039.972736","-075.173275"
"PNC Advisors","2101 S College Ave","19121","","Unverified","Sharswood","3","","999977","Nonclassified Establishments","99999004","Unclassified Establishments","","Single Loc","1","","039.972736","-075.173275"
"Power Direct Media LLC","2339 W Thompson St # A","19121","POWER DIRECT MEDIA LLC","Unverified","Sharswood","2","","999977","Nonclassified Establishments","99999004","Unclassified Establishments","","Single Loc","4","","039.975396","-075.174854"
"Powercorpsphl","2300 W Master St # 121","19121","","Unverified","Sharswood","2","","999977","Nonclassified Establishments","99999004","Unclassified Establishments","","Single Loc","1","","039.976239","-075.174217"
"Pride Of Israel 70","2207 W Thompson St # 3","19121","","Unverified","Sharswood","2","","999977","Nonclassified Establishments","99999004","Unclassified Establishments","","Single Loc","3","","039.974980","-075.172440"
"Princess Properties LLC","1326 N 22nd St","19121","PRINCESS PROPERTIES LLC","Unverified","Sharswood","2","","653118","Real Estate","53121003","Offices Of Real Estate Agents And Brokers","1 to 4","Single Loc","4","","039.975966","-075.172079"
"Problem Solvers Pest Control","2209 Bolton St","19121","","Unverified","Sharswood","1","","734201","Pest Control","56171009","Exterminating And Pest Control Services","1 to 4","Single Loc","14","1 - 1,499","039.978374","-075.171807"
"Ramadan's Oasis Barbershop","2062 Ridge Ave","19121","","Unverified","Sharswood","2","","724101","Barbers","81211101","Barber Shops","1 to 4","Single Loc","4","","039.976991","-075.169494"
"Ray Cab Co","2419 W Master St","19121","","Unverified","Sharswood","1","","412101","Taxicabs & Transportation Service","48531002","Taxi And Ridesharing Services","1 to 4","Single Loc","4","","039.976794","-075.175734"
"Ray's Reusables LLC","2400 W Thompson St # B","19121","RAY'S REUSABLES LLC","Unverified","Sharswood","2","","999977","Nonclassified Establishments","99999004","Unclassified Establishments","","Single Loc","4","","039.975187","-075.175435"
"Red Star Advisors LLC","2437 Sharswood St","19121","RED STAR ADVISORS LLC","Unverified","Sharswood","1","","874899","Consultants-Business NEC","54161830","Other Management Consulting Services","1 to 4","Single Loc","4","","039.977505","-075.175908"
"Relax Unlimited Ministries","2341 N College Ave","19121","","Unverified","Sharswood","2","","866107","Churches","81311008","Religious Organizations","1 to 4","Single Loc","4","","039.974730","-075.174981"
"Retail Manager","2101 N College Ave","19121","","Unverified","Sharswood","2","","999977","Nonclassified Establishments","99999004","Unclassified Establishments","","Single Loc","2","","039.975227","-075.171211"
"Rev Green Ministries","2101 S College Ave","19121","","Unverified","Sharswood","3","","866110","Religious Organizations","81311021","Religious Organizations","1 to 4","Single Loc","4","","039.972736","-075.173275"
"Reynolds School","1429 N 24th St","19121","","Unverified","Sharswood","1","General John F. Reynolds School Is A Learning Center That Offers Educational And Enrichment Programs To Students IN Kindergarten Through Grade Eight. Its Facilities Include A Library Media Center, Cafeteria, Sports Field, Gymnasium, Auditorium, Parent Resource Center, Computer And Science Laboratories, Administrative Offices, And Art And Music Rooms. General John F. Reynolds School Is A Part Of The School District Of Philadelphia, Which Is One Of The Largest School Systems IN The United States. The District Operates More Than 270 Educational Institutions And Serves Over 178,000 Students. General John F. Reynolds School Has An Annual Enrollment Of Approximately 450 Students And Is Located IN Philadelphia.","821103","Schools","61111007","Elementary And Secondary Schools","50 to 99","Single Loc","38","100,000+","039.977314","-075.174765"
"Rhi Magnesita","2123 W Seybert St","19121","","Unverified","Sharswood","2","","999977","Nonclassified Establishments","99999004","Unclassified Establishments","","Single Loc","3","","039.975583","-075.171241"
"Ridge Delite","2062 Ridge Ave","19121","RIDGE DELIGHT LLC","Unverified","Sharswood","2","","581208","Restaurants","72251117","Full-Service Restaurants","1 to 4","Single Loc","11","1 - 1,499","039.976991","-075.169494"
"Ridge Home Furniture Inc","2050 Ridge Ave # 51","19121","RIDGE HOME FURNITURE INC","Unverified","Sharswood","2","","571216","Furniture-Dealers-Retail","44911012","Furniture Retailers","1 to 4","Single Loc","2","","039.976741","-075.169369"
"Rite Aid","2137 W Jefferson St","19121","","Unverified","Sharswood","2","","591205","Pharmacies","45611009","Pharmacies And Drug Retailers","5 to 9","Single Loc","5","","039.977622","-075.171055"
"Robichaw-Meadows GROUP LLC","2423 W Jefferson St","19121","ROBICHAW-MEADOWS GROUP LLC","Unverified","Sharswood","1","","999977","Nonclassified Establishments","99999004","Unclassified Establishments","","Single Loc","4","","039.978160","-075.175423"
"Robin Strong LLC","2138 W Jefferson St","19121","ROBIN STRONG LLC","Unverified","Sharswood","2","","999977","Nonclassified Establishments","99999004","Unclassified Establishments","","Single Loc","3","","039.977348","-075.171123"
"Rodgers Construction","2311 W Jefferson St","19121","","Unverified","Sharswood","1","","152144","Construction Companies","23611512","New Single-Family Housing Construction (Except For","1 to 4","Single Loc","14","1 - 1,499","039.977794","-075.172997"
"Rodriguez Grocery A","2438 W Thompson St","19121","","Unverified","Sharswood","2","","541105","Grocers-Retail","44511003","Supermarkets And Other Grocery Retailers (Except C","20 to 49","Single Loc","4","","039.975355","-075.176786"
"Rubin Realty 2310 LLC","2207 W Thompson St # 3","19121","RUBIN REALTY 2310 LLC","Unverified","Sharswood","2","","653118","Real Estate","53121003","Offices Of Real Estate Agents And Brokers","1 to 4","Single Loc","4","","039.974980","-075.172440"
"Sabic","2337 N College Ave","19121","","Unverified","Sharswood","2","","999977","Nonclassified Establishments","99999004","Unclassified Establishments","","Single Loc","1","","039.974740","-075.174867"
"Sagebeard Limited","2420 W Thompson St","19121","","Unverified","Sharswood","2","","999977","Nonclassified Establishments","99999004","Unclassified Establishments","","Single Loc","4","","039.975279","-075.176136"
"Scape The Land","2111 W Master St # A","19121","","Unverified","Sharswood","2","","999977","Nonclassified Establishments","99999004","Unclassified Establishments","","Single Loc","4","","039.976165","-075.170686"
"School District-Philadelphia","1429 N 24th St","19121","","Unverified","Sharswood","1","","821120","School Districts","61111018","Elementary And Secondary Schools","10 to 19","Single Loc","6","10,000 - 19,999","039.977314","-075.174765"
"School District-Philadelphia","2300 W Master St # 1","19121","","Unverified","Sharswood","2","","821120","School Districts","61111018","Elementary And Secondary Schools","5 to 9","Single Loc","9","10,000 - 19,999","039.976239","-075.174217"
"Secure Holdings","2439 N College Ave","19121","","Unverified","Sharswood","2","","653118","Real Estate","53121003","Offices Of Real Estate Agents And Brokers","1 to 4","Single Loc","11","2,500 - 4,999","039.974511","-075.176950"
"Sell My House Philadelphia LLC","2431 W Jefferson St","19121","SELL MY HOUSE PHILADELPHIA LLC","Unverified","Sharswood","1","","999977","Nonclassified Establishments","99999004","Unclassified Establishments","","Single Loc","4","","039.978189","-075.175652"
"SHANIKA-Brown.Pixel.Com","2101 N College Ave","19121","","Unverified","Sharswood","2","","999977","Nonclassified Establishments","99999004","Unclassified Establishments","","Single Loc","1","","039.975227","-075.171211"
"Shannon Family Enterprises Inc","2127 W Seybert St","19121","SHANNON FAMILY ENTERPRISES INC","Unverified","Sharswood","2","","999977","Nonclassified Establishments","99999004","Unclassified Establishments","","Single Loc","4","","039.975574","-075.171355"
"Sharswood II Apartments","1415 N 21st St","19121","","Unverified","Sharswood","2","","651303","Apartments","53111002","Lessors Of Residential Buildings And Dwellings","1 to 4","Single Loc","13","5,000 - 9,999","039.976361","-075.169932"
"Sharswood II Assoc LP","1450 N 21st St","19121","SHARSWOOD II ASSOC LP","Unverified","Sharswood","2","","999977","Nonclassified Establishments","99999004","Unclassified Establishments","","Single Loc","5","2,500 - 4,999","039.977092","-075.170034"
"Siakwado Development Assn USA","1328 N 22nd St","19121","","Unverified","Sharswood","2","","861102","Associations","81391002","Business Associations","1 to 4","Single Loc","4","","039.976012","-075.172069"
"Silhouette Publishing","2225 N College Ave","19121","","Unverified","Sharswood","2","","274105","Publishers (Mfrs)","51319907","All Other Publishers","1 to 4","Single Loc","4","","039.974888","-075.173047"
"Six Brothers Inc","2305 W Thompson St","19121","SIX BROTHERS INC","Unverified","Sharswood","2","","999977","Nonclassified Establishments","99999004","Unclassified Establishments","","Single Loc","4","","039.975293","-075.173894"
"Slade Unlimited LLC","2325 W Thompson St","19121","SLADE UNLIMITED LLC","Unverified","Sharswood","2","","999977","Nonclassified Establishments","99999004","Unclassified Establishments","","Single Loc","11","1 - 1,499","039.975351","-075.174458"
"Soft Play Ground","2058 Ridge Ave","19121","","Unverified","Sharswood","2","","999977","Nonclassified Establishments","99999004","Unclassified Establishments","","Single Loc","3","","039.976910","-075.169451"
"Solomon Bull","2311 N College Ave","19121","","Unverified","Sharswood","2","","421213","Grain Hauling","48422005","Specialized Freight (Except Used Goods) Trucking,","1 to 4","Single Loc","15","1,500 - 2,499","039.974805","-075.174151"
"South Carolina Bapt Convention","2212 Stewart St # A2","19121","","Unverified","Sharswood","1","","999977","Nonclassified Establishments","99999004","Unclassified Establishments","","Single Loc","1","","039.977210","-075.172218"
"South Central Investments LLC","2033 W Master St","19121","SOUTH CENTRAL INVESTMENTS LLC","Unverified","Sharswood","2","","621111","Investments","52391001","Miscellaneous Intermediation","1 to 4","Single Loc","4","","039.976021","-075.169532"
"Sparkk Umoja LLC","2401 W Jefferson St","19121","SPARKK UMOJA LLC","Unverified","Sharswood","1","","999977","Nonclassified Establishments","99999004","Unclassified Establishments","","Single Loc","4","","039.978088","-075.174802"
"Sparkling New LLC","2316 W Seybert St","19121","SPARKLING NEW LLC","Unverified","Sharswood","2","","999977","Nonclassified Establishments","99999004","Unclassified Establishments","","Single Loc","3","","039.975556","-075.174163"
"Spyked By Chevvyb LLC","2339 W Thompson St","19121","SPYKED BY CHEVVYB LLC","Unverified","Sharswood","2","","999977","Nonclassified Establishments","99999004","Unclassified Establishments","","Single Loc","4","","039.975396","-075.174854"
"Sqad Inc","2101 S College Ave","19121","SQAD INC","Unverified","Sharswood","3","","999977","Nonclassified Establishments","99999004","Unclassified Establishments","","Single Loc","3","","039.972736","-075.173275"
"St Bear Imports & Exports LLC","2130 W Master St","19121","ST BEAR IMPORTS & EXPORTS LLC","Unverified","Sharswood","2","","509905","Importers (Whls)","42399019","Other Miscellaneous Durable Goods Merchant Wholesa","1 to 4","Single Loc","4","","039.975943","-075.171221"
"St Paul House Of Worship","2024 Ridge Ave","19121","","Unverified","Sharswood","2","","866107","Churches","81311008","Religious Organizations","1 to 4","Single Loc","4","","039.976016","-075.169021"
"Stephen Girard Collection","2101 S College Ave # 116","19121","","Unverified","Sharswood","3","","841201","Museums","71211001","Museums","1 to 4","Single Loc","17","1,500 - 2,499","039.973010","-075.170870"
"Stop & Recover","2349 W Thompson St","19121","","Unverified","Sharswood","2","","999977","Nonclassified Establishments","99999004","Unclassified Establishments","","Single Loc","4","","039.975434","-075.175135"
"Stormi's Special-Tees","1204 N Ringgold St","19121","","Unverified","Sharswood","2","","275902","Screen Printing (Mfrs)","32311301","Commercial Screen Printing","1 to 4","Single Loc","4","","039.974806","-075.176108"
"Strength In Numbers Group LLC","1444 N 21st St","19121","STRENGTH IN NUMBERS GROUP LLC","Unverified","Sharswood","2","","999977","Nonclassified Establishments","99999004","Unclassified Establishments","","Single Loc","4","","039.977069","-075.170039"
"Studio Hair Rx LLC","2101 N College Ave","19121","STUDIO HAIR RX LLC","Unverified","Sharswood","2","","723106","Beauty Salons","81211202","Beauty Salons","1 to 4","Single Loc","11","1 - 1,499","039.975227","-075.171211"
"Supreme Painting","1212 N Ringgold St","19121","SUPREME PAINTING","Unverified","Sharswood","2","","172101","Painters","23832003","Painting And Wall Covering Contractors","1 to 4","Single Loc","3","","039.974961","-075.176078"
"Supreme Realtor LLC","2109 W Seybert St # A","19121","SUPREME REALTOR LLC","Unverified","Sharswood","2","","653118","Real Estate","53121003","Offices Of Real Estate Agents And Brokers","1 to 4","Single Loc","4","","039.975622","-075.170835"
"T & K Grassroots LLC","2409 N College Ave","19121","T & K GRASSROOTS LLC","Unverified","Sharswood","2","","999977","Nonclassified Establishments","99999004","Unclassified Establishments","","Single Loc","4","","039.974583","-075.176230"
"T Barber Enterprises LLC","2447 Harlan St","19121","T BARBER ENTERPRISES LLC","Unverified","Sharswood","1","","724101","Barbers","81211101","Barber Shops","1 to 4","Single Loc","4","","039.977169","-075.176190"
"Taj Real Estate & Invstmnt LLC","1410 N 23rd St","19121","TAJ REAL ESTATE & INVSTMNT LLC","Unverified","Sharswood","1","","653118","Real Estate","53121003","Offices Of Real Estate Agents And Brokers","1 to 4","Single Loc","4","","039.976689","-075.173524"
"Tattee Boy Clothes","2411 W Thompson St # 1","19121","","Unverified","Sharswood","2","","565101","Clothing-Retail","45811041","Clothing And Clothing Accessories Retailers","1 to 4","Single Loc","2","","039.975529","-075.175802"
"Thor Equity LLC","2430 W Jefferson St","19121","THOR EQUITY AS LLC","Unverified","Sharswood","1","","653108","Real Estate Management","53121005","Offices Of Real Estate Agents And Brokers","1 to 4","Single Loc","11","1,500 - 2,499","039.977942","-075.175673"
"Tivejo","2437 W Thompson St","19121","","Unverified","Sharswood","2","","999977","Nonclassified Establishments","99999004","Unclassified Establishments","","Single Loc","5","","039.975591","-075.176517"
"TMT Brothers Investments LLC","2129 W Jefferson St","19121","TMT BROTHERS INVESTMENTS LLC","Unverified","Sharswood","2","","621111","Investments","52391001","Miscellaneous Intermediation","1 to 4","Single Loc","4","","039.977591","-075.170846"
"TN Ward Co","2333 W Jefferson St","19121","","Unverified","Sharswood","1","","999977","Nonclassified Establishments","99999004","Unclassified Establishments","","Single Loc","8","1 - 1,499","039.977797","-075.173021"
"Top Tier Transportation Group","2142 W Master St","19121","TOP TIER TRANSPORTATION GROUP","Unverified","Sharswood","2","","999977","Nonclassified Establishments","99999004","Unclassified Establishments","","Single Loc","3","","039.976004","-075.171551"
"Total Hands Home Care LLC","2213 W Seybert St","19121","TOTAL HANDS HOME CARE LLC","Unverified","Sharswood","2","","478977","Transportation","48821008","Support Activities For Rail Transportation","1 to 4","Single Loc","4","","039.975559","-075.172457"
"Totally Booked","2013 N College Ave # 3","19121","","Unverified","Sharswood","2","","999977","Nonclassified Establishments","99999004","Unclassified Establishments","","Single Loc","4","","039.975367","-075.168901"
"Town Of Rising Sun","2101 S College Ave","19121","","Unverified","Sharswood","3","","912104","Government Offices-City/Village & Twp","92112006","Legislative Bodies","20 to 49","Single Loc","3","","039.972736","-075.173275"
"Transformation Christian Chr","2019 W Jefferson St","19121","TRANSFORMATION CHRISTIAN CHURCH","Unverified","Sharswood","2","","866107","Churches","81311008","Religious Organizations","1 to 4","Single Loc","34","1,500 - 2,499","039.977361","-075.168870"
"Treasuring Knowledge","2103 W Jefferson St","19121","TREASURING KNOWLEDGE","Unverified","Sharswood","2","","999977","Nonclassified Establishments","99999004","Unclassified Establishments","","Single Loc","3","","039.977549","-075.170038"
"Trident Acquisition Partners","2430 W Jefferson St","19121","TRIDENT ACQUISITION PARTNERS LLC","Unverified","Sharswood","1","","653104","Real Estate Investments","53121004","Offices Of Real Estate Agents And Brokers","1 to 4","Single Loc","11","2,500 - 4,999","039.977942","-075.175673"
"Trillionaire Paint School LLC","1326 N 22nd St","19121","TRILLIONAIRE PAINT SCHOOL LLC","Unverified","Sharswood","2","","821103","Schools","61111007","Elementary And Secondary Schools","50 to 99","Single Loc","4","","039.975966","-075.172079"
"Trinity Day Care & After Sch","2318 W Thompson St","19121","","Unverified","Sharswood","2","","835101","Child Care Service","62441003","Child Care Services","1 to 4","Single Loc","15","1,500 - 2,499","039.975038","-075.174304"
"Triple D's Auto LTD Co","2422 W Master St","19121","","Unverified","Sharswood","2","","999977","Nonclassified Establishments","99999004","Unclassified Establishments","","Single Loc","4","","039.976554","-075.175781"
"Triumf","2428 W Thompson St","19121","","Unverified","Sharswood","2","","999977","Nonclassified Establishments","99999004","Unclassified Establishments","","Single Loc","2","","039.975299","-075.176573"
"Trojan Childrens Positive","2058 Ridge Ave # 1","19121","","Unverified","Sharswood","2","","835101","Child Care Service","62441003","Child Care Services","1 to 4","Single Loc","12","1 - 1,499","039.976910","-075.169451"
"True Appliances LLC","2320 W Oxford St","19121","TRUE APPLIANCES LLC","Unverified","Sharswood","1","","762902","Appliances-Household-Major-Repairing","81141201","Appliance Repair And Maintenance","1 to 4","Single Loc","3","","039.979151","-075.173193"
"Tshoa2023 LLC","2430 W Jefferson St","19121","TSHOA2023 LLC","Unverified","Sharswood","1","","999977","Nonclassified Establishments","99999004","Unclassified Establishments","","Single Loc","1","","039.977942","-075.175673"
"Two Trees","2217 W Seybert St","19121","","Unverified","Sharswood","2","","078301","Tree Service","56173022","Landscaping Services","1 to 4","Single Loc","2","","039.975570","-075.172557"
"Twoseoguys LLC","2431 W Jefferson St","19121","TWOSEOGUYS LLC","Unverified","Sharswood","1","","999977","Nonclassified Establishments","99999004","Unclassified Establishments","","Single Loc","4","","039.978189","-075.175652"
"Twyneup LLC","2101 N College Ave # C6","19121","TWYNEUP LLC","Unverified","Sharswood","2","","999977","Nonclassified Establishments","99999004","Unclassified Establishments","","Single Loc","12","1 - 1,499","039.975227","-075.171211"
"Union Baptist Assn-Pa Nj-De","2220 W Master St","19121","","Unverified","Sharswood","2","","866107","Churches","81311008","Religious Organizations","1 to 4","Single Loc","4","","039.976134","-075.172630"
"Union Discount Ctr Inc","2050 Ridge Ave","19121","UNION DISCOUNT CTR INC","Unverified","Sharswood","2","","999977","Nonclassified Establishments","99999004","Unclassified Establishments","","Single Loc","4","","039.976741","-075.169369"
"Unique Cleaning","2123 W Master St","19121","","Unverified","Sharswood","2","","999977","Nonclassified Establishments","99999004","Unclassified Establishments","","Single Loc","2","","039.976224","-075.171097"
"United American Veterans","2335 N College Ave","19121","","Unverified","Sharswood","2","","864102","Veterans' & Military Organizations","81341003","Civic And Social Organizations","1 to 4","Single Loc","4","","039.974745","-075.174810"
"United Methodist Church","2412 W Seybert St","19121","UNITED METHODIST CHURCH","Unverified","Sharswood","2","","866107","Churches","81311008","Religious Organizations","1 to 4","Single Loc","7","1,500 - 2,499","039.975785","-075.175627"
"Universal Enterprise Logistics","1206 N 24th St # C","19121","UNIVERSAL ENTERPRISE LOGISTICS LLC","Unverified","Sharswood","2","","999977","Nonclassified Establishments","99999004","Unclassified Establishments","","Single Loc","3","","039.974914","-075.175581"
"Universal Improvement Co","2137 W Jefferson St","19121","","Unverified","Sharswood","2","","999977","Nonclassified Establishments","99999004","Unclassified Establishments","","Single Loc","4","","039.977622","-075.171055"
"University Of PA Law Review","1425 N 23rd St","19121","","Unverified","Sharswood","1","","822103","Law Schools","61131004","Colleges, Universities, And Professional Schools","","Single Loc","3","","039.977098","-075.173184"
"Untal Nobles-Tabernacle Gospel","2034 Ridge Ave","19121","","Unverified","Sharswood","2","","866107","Churches","81311008","Religious Organizations","1 to 4","Single Loc","15","1,500 - 2,499","039.976261","-075.169144"
"VMR Corp","2438 W Thompson St","19121","VMR CORP","Unverified","Sharswood","2","","541105","Grocers-Retail","44511003","Supermarkets And Other Grocery Retailers (Except C","1 to 4","Single Loc","21","1,500 - 2,499","039.975355","-075.176786"
"Volia Personal Chef Svc LLC","2215 W Thompson St","19121","VOLIA! PERSONAL CHEF SVC LTD LIABILITY CO","Unverified","Sharswood","2","","999977","Nonclassified Establishments","99999004","Unclassified Establishments","","Single Loc","4","","039.975106","-075.172601"
"Watts, Daud","1410 N 23rd St # 2","19121","","Unverified","Sharswood","1","","999977","Nonclassified Establishments","99999004","Unclassified Establishments","1 to 4","Single Loc","11","1 - 1,499","039.976689","-075.173524"
"Wave Property Group LLC","1204 N 24th St # 5","19121","WAVE PROPERTY GROUP LLC","Unverified","Sharswood","2","","653118","Real Estate","53121003","Offices Of Real Estate Agents And Brokers","1 to 4","Single Loc","3","","039.974870","-075.175591"
"Wes Health Ctr","2311 W Jefferson St","19121","","Unverified","Sharswood","1","","809907","Health Services","62199921","All Other Miscellaneous Ambulatory Health Care Ser","5 to 9","Single Loc","14","5,000 - 9,999","039.977794","-075.172997"
"Wherever Bar","2111 W Master St # A","19121","","Unverified","Sharswood","2","","999977","Nonclassified Establishments","99999004","Unclassified Establishments","","Single Loc","4","","039.976165","-075.170686"
"Wiiliams & Sons Trucking Co","2425 W Master St","19121","","Unverified","Sharswood","1","","421304","Trucking","48423013","Specialized Freight (Except Used Goods) Trucking,","1 to 4","Single Loc","4","","039.976835","-075.175957"
"William G Smith & Sons Inc","2100 Bolton St","19121","WILLIAM G SMITH & SONS INC","Unverified","Sharswood","2","","999977","Nonclassified Establishments","99999004","Unclassified Establishments","","Single Loc","4","","039.978018","-075.170324"
"Wilmington Youth Rowing Assn","2208 W Seybert St","19121","","Unverified","Sharswood","2","","999977","Nonclassified Establishments","99999004","Unclassified Establishments","","Single Loc","1","","039.975332","-075.172404"
"Wine & Spirits","2100 Ridge Ave","19121","","Unverified","Sharswood","2","","592102","Liquors-Retail","44532004","Beer, Wine, And Liquor Retailers","1 to 4","Single Loc","14","1,500 - 2,499","039.977905","-075.170048"
"Winner Service","2137 W Jefferson St","19121","","Unverified","Sharswood","2","","899999","Services NEC","54199009","All Other Professional, Scientific, And Technical","1 to 4","Single Loc","4","","039.977622","-075.171055"
"Wise Contractor LLC","2109 W Seybert St","19121","WISE CONTRACTOR LLC","Unverified","Sharswood","2","","999977","Nonclassified Establishments","99999004","Unclassified Establishments","","Single Loc","3","","039.975622","-075.170835"
"Women In Wealth Network LLC","2439 N College Ave # 5","19121","WOMEN IN WEALTH NETWORK LLC","Unverified","Sharswood","2","","999977","Nonclassified Establishments","99999004","Unclassified Establishments","","Single Loc","4","","039.974511","-075.176950"
"Wood County Board Of Education","2110 W Jefferson St","19121","","Unverified","Sharswood","2","","821113","Boards Of Education","61111005","Elementary And Secondary Schools","50 to 99","Single Loc","2","","039.977242","-075.170371"
"Xo Monae LLC","1430 N 22nd St","19121","XO MONAE LLC","Unverified","Sharswood","1","","999977","Nonclassified Establishments","99999004","Unclassified Establishments","","Single Loc","4","","039.976663","-075.171780"
"Ynot Teach","2220 W Master St # 5","19121","","Unverified","Sharswood","2","","999977","Nonclassified Establishments","99999004","Unclassified Establishments","","Single Loc","4","","039.976134","-075.172630"
"Young Queens Rise Inc","1218 N Ringgold St","19121","YOUNG QUEENS RISE INC","Unverified","Sharswood","2","","999977","Nonclassified Establishments","99999004","Unclassified Establishments","","Single Loc","3","","039.975076","-075.176056"
"Youth Concerned For The Cmnty","2403 W Master St","19121","","Unverified","Sharswood","1","","832222","Youth Organizations & Centers","62411006","Child And Youth Services","20 to 49","Single Loc","4","","039.976726","-075.175165"
"Yum's Kitchen LLC","2227 W Thompson St # 2","19121","YUM'S KITCHEN LLC","Unverified","Sharswood","2","","571211","Kitchen Cabinets & Equipment-Household","33711006","Wood Kitchen Cabinet And Countertop Manufacturing","1 to 4","Single Loc","4","","039.975156","-075.172941"
"Zamssoul LLC","2216 W Oxford St","19121","ZAMSSOUL LLC","Unverified","Sharswood","1","","999977","Nonclassified Establishments","99999004","Unclassified Establishments","","Single Loc","4","","039.978967","-075.171710"
"Zoogang LLC","2425 W Master St","19121","ZOOGANG LLC","Unverified","Sharswood","1","","999977","Nonclassified Establishments","99999004","Unclassified Establishments","","Single Loc","4","","039.976835","-075.175957"
